title,abbr,key,category,parent,parent_key,description,url,jurisdiction,jurisdiction_code,source,source_url,address,contact,email,tags,created_at,updated_at
4-H,,pe/4-h,,Agriculture and Forestry,pe/agriculture-and-forestry,,http://www.gov.pe.ca/af/ap&rd-info/dg.inc.php3,Saskatchewan,SK,"Index of Departments, Disivions and Sections",http://www.gov.pe.ca,"5th Floor, Jones Building 11 Kent Street Charlottetown, P.E.I. C1A 7N8",Shane Murphy,,,6/7/13,6/7/13
911 Call Answer - Transfer Service,,pe/911-call-answer-transfer-service,,"Environment, Labour and Justice",pe/environment-labour-and-justice,,http://www.gov.pe.ca/jps/csajp-info/dg.inc.php3,Saskatchewan,SK,"Index of Departments, Disivions and Sections",http://www.gov.pe.ca,"Fourth Floor, Shaw Building 105 Rochford Street Charlottetown, PE C1A 7N8",Erin Mitchell,,,6/7/13,6/7/13
Aboriginal Affairs Secretariat,,pe/aboriginal-affairs-secretariat,,Executive Council Office,pe/executive-council-office,,http://www.gov.pe.ca/eco/iapa-info/dg.inc.php3,Saskatchewan,SK,"Index of Departments, Disivions and Sections",http://www.gov.pe.ca,5th Floor Centre Shaw Building PO Box 2000 Charlottetown PE C1A 7N8,Matt McGuire,,,6/7/13,6/7/13
Acadian and Francophone Affairs Secretariat,,pe/acadian-and-francophone-affairs-secretariat,,Executive Council Office,pe/executive-council-office,,http://www.gov.pe.ca/eco/aafas-info/dg.inc.php3,Saskatchewan,SK,"Index of Departments, Disivions and Sections",http://www.gov.pe.ca,PO Box 58 Wellington PE C0B 2E0,Hon. Robert W.J. GhizAubrey Cormier,,,6/7/13,6/7/13
Acadian Museum,,pe/acadian-museum,,Tourism and Culture,pe/tourism-and-culture,,http://www.gov.pe.ca/tourism/mahf-info/dg.inc.php3,Saskatchewan,SK,"Index of Departments, Disivions and Sections",http://www.gov.pe.ca,Beaconsfield 2 Kent Street Charlottetown PEI C1A 1M6,Harry KiellyDr. David L Keenlyside,,,6/7/13,6/7/13
Access and Privacy Services,,pe/access-and-privacy-services,,"Environment, Labour and Justice",pe/environment-labour-and-justice,,http://www.gov.pe.ca/jps/csajp-info/dg.inc.php3,Saskatchewan,SK,"Index of Departments, Disivions and Sections",http://www.gov.pe.ca,"Fourth Floor, Shaw Building 105 Rochford Street Charlottetown, PE C1A 7N8",Erin Mitchell,,,6/7/13,6/7/13
Access PEI Alberton,,pe/access-pei-alberton,,"Fisheries, Aquaculture and Rural Development",pe/fisheries-aquaculture-and-rural-development,,http://www.gov.pe.ca/fa/apws-info/dg.inc.php3,Saskatchewan,SK,"Index of Departments, Disivions and Sections",http://www.gov.pe.ca,"PO Box 1180 548 Main St Montague, PE C0A 1R0",Tim G Garrity,,,6/7/13,6/7/13
Access PEI Charlottetown,,pe/access-pei-charlottetown,,"Fisheries, Aquaculture and Rural Development",pe/fisheries-aquaculture-and-rural-development,,http://www.gov.pe.ca/fa/apws-info/dg.inc.php3,Saskatchewan,SK,"Index of Departments, Disivions and Sections",http://www.gov.pe.ca,"PO Box 1180 548 Main St Montague, PE C0A 1R0",Tim G Garrity,,,6/7/13,6/7/13
Access PEI Montague,,pe/access-pei-montague,,"Fisheries, Aquaculture and Rural Development",pe/fisheries-aquaculture-and-rural-development,,http://www.gov.pe.ca/fa/apws-info/dg.inc.php3,Saskatchewan,SK,"Index of Departments, Disivions and Sections",http://www.gov.pe.ca,"PO Box 1180 548 Main St Montague, PE C0A 1R0",Tim G Garrity,,,6/7/13,6/7/13
Access PEI O'Leary,,pe/access-pei-o-leary,,"Fisheries, Aquaculture and Rural Development",pe/fisheries-aquaculture-and-rural-development,,http://www.gov.pe.ca/fa/apws-info/dg.inc.php3,Saskatchewan,SK,"Index of Departments, Disivions and Sections",http://www.gov.pe.ca,"PO Box 1180 548 Main St Montague, PE C0A 1R0",Tim G Garrity,,,6/7/13,6/7/13
Access PEI/Single Window Service,,pe/access-pei-single-window-service,,"Fisheries, Aquaculture and Rural Development",pe/fisheries-aquaculture-and-rural-development,,http://www.gov.pe.ca/fa/apws-info/dg.inc.php3,Saskatchewan,SK,"Index of Departments, Disivions and Sections",http://www.gov.pe.ca,"PO Box 1180 548 Main St Montague, PE C0A 1R0",Tim G Garrity,,,6/7/13,6/7/13
Access PEI Souris,,pe/access-pei-souris,,"Fisheries, Aquaculture and Rural Development",pe/fisheries-aquaculture-and-rural-development,,http://www.gov.pe.ca/fa/apws-info/dg.inc.php3,Saskatchewan,SK,"Index of Departments, Disivions and Sections",http://www.gov.pe.ca,"PO Box 1180 548 Main St Montague, PE C0A 1R0",Tim G Garrity,,,6/7/13,6/7/13
Access PEI Summerside,,pe/access-pei-summerside,,"Fisheries, Aquaculture and Rural Development",pe/fisheries-aquaculture-and-rural-development,,http://www.gov.pe.ca/fa/apws-info/dg.inc.php3,Saskatchewan,SK,"Index of Departments, Disivions and Sections",http://www.gov.pe.ca,"PO Box 1180 548 Main St Montague, PE C0A 1R0",Tim G Garrity,,,6/7/13,6/7/13
Access PEI Tignish,,pe/access-pei-tignish,,"Fisheries, Aquaculture and Rural Development",pe/fisheries-aquaculture-and-rural-development,,http://www.gov.pe.ca/fa/apws-info/dg.inc.php3,Saskatchewan,SK,"Index of Departments, Disivions and Sections",http://www.gov.pe.ca,"PO Box 1180 548 Main St Montague, PE C0A 1R0",Tim G Garrity,,,6/7/13,6/7/13
Access PEI Wellington,,pe/access-pei-wellington,,"Fisheries, Aquaculture and Rural Development",pe/fisheries-aquaculture-and-rural-development,,http://www.gov.pe.ca/fa/apws-info/dg.inc.php3,Saskatchewan,SK,"Index of Departments, Disivions and Sections",http://www.gov.pe.ca,"PO Box 1180 548 Main St Montague, PE C0A 1R0",Tim G Garrity,,,6/7/13,6/7/13
Accounting,,pe/accounting,,"Finance, Energy  and Municipal Affairs",pe/finance-energy-and-municipal-affairs,,http://www.gov.pe.ca/finance/ootc-info/dg.inc.php3,Saskatchewan,SK,"Index of Departments, Disivions and Sections",http://www.gov.pe.ca,"Second Floor, Shaw Building 95 Rochford Street P.O. Box 2000 Charlottetown, PEI C1A 7N8","Doug Clow, CA",,,6/7/13,6/7/13
Accounts Payable,,pe/accounts-payable,,"Finance, Energy  and Municipal Affairs",pe/finance-energy-and-municipal-affairs,,http://www.gov.pe.ca/finance/ootc-info/dg.inc.php3,Saskatchewan,SK,"Index of Departments, Disivions and Sections",http://www.gov.pe.ca,"Second Floor, Shaw Building 95 Rochford Street P.O. Box 2000 Charlottetown, PEI C1A 7N8","Doug Clow, CA",,,6/7/13,6/7/13
Administration and Building Services,,pe/administration-and-building-services,,Innovation and Advanced Learning,pe/innovation-and-advanced-learning,,http://www.gov.pe.ca/ial/bio-info/dg.inc.php3,Saskatchewan,SK,"Index of Departments, Disivions and Sections",http://www.gov.pe.ca,"101 Belvedere Avenue PO Box 2000 Charlottetown, PE C1A 7N8","Jim Smith, PhD, FIFST, MBA",,,6/7/13,6/7/13
Administration and Corporate Services,,pe/administration-and-corporate-services,,Education and Early Childhood Development,pe/education-and-early-childhood-development,,http://www.gov.pe.ca/education/aacs-info/dg.inc.php3,Saskatchewan,SK,"Index of Departments, Disivions and Sections",http://www.gov.pe.ca,"250 Water Street, Suite 101 Summerside, PE C1N 1B6",Terry Keefe,,,6/7/13,6/7/13
"Administration, Corporate HRMS and Payroll",,pe/administration-corporate-hrms-and-payroll,,"Finance, Energy  and Municipal Affairs",pe/finance-energy-and-municipal-affairs,,http://www.gov.pe.ca/finance/psc-info/dg.inc.php3,Saskatchewan,SK,"Index of Departments, Disivions and Sections",http://www.gov.pe.ca,"First Floor Shaw Building North 105 Rochford Street P.O Box 2000 Charlottetown, PEI C1A 7N8",Andrew M Thompson,,,6/7/13,6/7/13
Administration,,pe/administration,,"Finance, Energy  and Municipal Affairs",pe/finance-energy-and-municipal-affairs,,http://www.gov.pe.ca/finance/ootc-info/dg.inc.php3,Saskatchewan,SK,"Index of Departments, Disivions and Sections",http://www.gov.pe.ca,"Second Floor, Shaw Building 95 Rochford Street P.O. Box 2000 Charlottetown, PEI C1A 7N8","Doug Clow, CA",,,6/7/13,6/7/13
Administration,,pe/administration,,Innovation and Advanced Learning,pe/innovation-and-advanced-learning,,http://www.gov.pe.ca/ial/fp-info/dg.inc.php3,Saskatchewan,SK,"Index of Departments, Disivions and Sections",http://www.gov.pe.ca,"Commercial and Resource Lending 98 Fitzroy Street, 2nd Floor PO Box 1176 Charlottetown, Prince Edward Island C1A 1R7 Canada Developmental Lending 94 Euston Street, 2nd Floor PO Box 1176 Charlottetown, Prince Edward Island C1A 7M8","Jamie Aiken, CA",,,6/7/13,6/7/13
Administration,,pe/administration,,Tourism and Culture,pe/tourism-and-culture,,http://www.gov.pe.ca/tourism/mahf-info/dg.inc.php3,Saskatchewan,SK,"Index of Departments, Disivions and Sections",http://www.gov.pe.ca,Beaconsfield 2 Kent Street Charlottetown PEI C1A 1M6,Harry KiellyDr. David L Keenlyside,,,6/7/13,6/7/13
Administrative Recalculation Office,,pe/administrative-recalculation-office,,"Environment, Labour and Justice",pe/environment-labour-and-justice,,http://www.gov.pe.ca/jps/lacs-info/dg.inc.php3,Saskatchewan,SK,"Index of Departments, Disivions and Sections",http://www.gov.pe.ca,"Fourth Floor,Shaw Building 95 Rochford Street PO Box 2000 Charlottetown, PEI C1A 7N8","Barrie L. Grandy, QC",,,6/7/13,6/7/13
Adult Custody Facilities,,pe/adult-custody-facilities,,"Environment, Labour and Justice",pe/environment-labour-and-justice,,http://www.gov.pe.ca/jps/cacs-info/dg.inc.php3,Saskatchewan,SK,"Index of Departments, Disivions and Sections",http://www.gov.pe.ca,"109 Water Street Summerside, PE C1N 1A8",John R Picketts,,,6/7/13,6/7/13
Advertising and Publicity,,pe/advertising-and-publicity,,Tourism and Culture,pe/tourism-and-culture,,http://www.gov.pe.ca/tourism/mcsac-info/dg.inc.php3,Saskatchewan,SK,"Index of Departments, Disivions and Sections",http://www.gov.pe.ca,,Brenda Gallant,,,6/7/13,6/7/13
Aerospace and Defence,,pe/aerospace-and-defence,,Innovation and Advanced Learning,pe/innovation-and-advanced-learning,,http://www.gov.pe.ca/ial/ip-info/dg.inc.php3,Saskatchewan,SK,"Index of Departments, Disivions and Sections",http://www.gov.pe.ca,"94 Euston Street PO Box 910 Charlottetown, PE C1A 7L9","Cheryl L. Paynter, CA",,,6/7/13,6/7/13
Agriculture Information Services,,pe/agriculture-information-services,,Agriculture and Forestry,pe/agriculture-and-forestry,,http://www.gov.pe.ca/af/ard-info/dg.inc.php3,Saskatchewan,SK,"Index of Departments, Disivions and Sections",http://www.gov.pe.ca,"Fifth Floor, Jones Building 11 Kent Street, P.O. Box 2000, Charlottetown, PEI C1A 7N8",Tracy Wood,,,6/7/13,6/7/13
Agriculture Innovation,,pe/agriculture-innovation,,Agriculture and Forestry,pe/agriculture-and-forestry,,http://www.gov.pe.ca/af/ard-info/dg.inc.php3,Saskatchewan,SK,"Index of Departments, Disivions and Sections",http://www.gov.pe.ca,"Fifth Floor, Jones Building 11 Kent Street, P.O. Box 2000, Charlottetown, PEI C1A 7N8",Tracy Wood,,,6/7/13,6/7/13
Agriculture Policy & Regulatory Division,,pe/agriculture-policy-regulatory-division,,Agriculture and Forestry,pe/agriculture-and-forestry,,http://www.gov.pe.ca/af/ap&rd-info/dg.inc.php3,Saskatchewan,SK,"Index of Departments, Disivions and Sections",http://www.gov.pe.ca,"5th Floor, Jones Building 11 Kent Street Charlottetown, P.E.I. C1A 7N8",Shane Murphy,,,6/7/13,6/7/13
Agriculture Regulatory Programs,,pe/agriculture-regulatory-programs,,Agriculture and Forestry,pe/agriculture-and-forestry,,http://www.gov.pe.ca/af/ap&rd-info/dg.inc.php3,Saskatchewan,SK,"Index of Departments, Disivions and Sections",http://www.gov.pe.ca,"5th Floor, Jones Building 11 Kent Street Charlottetown, P.E.I. C1A 7N8",Shane Murphy,,,6/7/13,6/7/13
Agriculture Resource Division,,pe/agriculture-resource-division,,Agriculture and Forestry,pe/agriculture-and-forestry,,http://www.gov.pe.ca/af/ard-info/dg.inc.php3,Saskatchewan,SK,"Index of Departments, Disivions and Sections",http://www.gov.pe.ca,"Fifth Floor, Jones Building 11 Kent Street, P.O. Box 2000, Charlottetown, PEI C1A 7N8",Tracy Wood,,,6/7/13,6/7/13
Agriculture,,pe/agriculture,,Innovation and Advanced Learning,pe/innovation-and-advanced-learning,,http://www.gov.pe.ca/ial/fp-info/dg.inc.php3,Saskatchewan,SK,"Index of Departments, Disivions and Sections",http://www.gov.pe.ca,"Commercial and Resource Lending 98 Fitzroy Street, 2nd Floor PO Box 1176 Charlottetown, Prince Edward Island C1A 1R7 Canada Developmental Lending 94 Euston Street, 2nd Floor PO Box 1176 Charlottetown, Prince Edward Island C1A 7M8","Jamie Aiken, CA",,,6/7/13,6/7/13
Alberton Location,,pe/alberton-location,,"Environment, Labour and Justice",pe/environment-labour-and-justice,,http://www.gov.pe.ca/jps/cacs-info/dg.inc.php3,Saskatchewan,SK,"Index of Departments, Disivions and Sections",http://www.gov.pe.ca,"109 Water Street Summerside, PE C1N 1A8",John R Picketts,,,6/7/13,6/7/13
Aphid Alert Program,,pe/aphid-alert-program,,Agriculture and Forestry,pe/agriculture-and-forestry,,http://www.gov.pe.ca/af/ard-info/dg.inc.php3,Saskatchewan,SK,"Index of Departments, Disivions and Sections",http://www.gov.pe.ca,"Fifth Floor, Jones Building 11 Kent Street, P.O. Box 2000, Charlottetown, PEI C1A 7N8",Tracy Wood,,,6/7/13,6/7/13
Application Development,,pe/application-development,,"Finance, Energy  and Municipal Affairs",pe/finance-energy-and-municipal-affairs,,http://www.gov.pe.ca/finance/itss-info/dg.inc.php3,Saskatchewan,SK,"Index of Departments, Disivions and Sections",http://www.gov.pe.ca,"Sullivan Building, 5th floor PO Box 2000 Charlottetown PE C1A 7N8","Norman MacDonald, COO",,,6/7/13,6/7/13
Apprenticeship Training,,pe/apprenticeship-training,,Innovation and Advanced Learning,pe/innovation-and-advanced-learning,,http://www.gov.pe.ca/ial/psace-info/dg.inc.php3,Saskatchewan,SK,"Index of Departments, Disivions and Sections",http://www.gov.pe.ca,"Atlantic Technology Centre 90 University Avenue, Suite 212 Charlottetown, PE C1A 4K9",Susan A MacKenzie,,,6/7/13,6/7/13
Aquaculture,,pe/aquaculture,,"Fisheries, Aquaculture and Rural Development",pe/fisheries-aquaculture-and-rural-development,,http://www.gov.pe.ca/fa/aqu-info/dg.inc.php3,Saskatchewan,SK,"Index of Departments, Disivions and Sections",http://www.gov.pe.ca,"PO Box 1180 548 Main St Montague, PE C0A 1R0",Neil MacNair,,,6/7/13,6/7/13
Autism Services,,pe/autism-services,,Education and Early Childhood Development,pe/education-and-early-childhood-development,,http://www.gov.pe.ca/education/laecd-info/dg.inc.php3,Saskatchewan,SK,"Index of Departments, Disivions and Sections",http://www.gov.pe.ca,,Imelda Arsenault,,,6/7/13,6/7/13
Basin Head Fisheries Museum,,pe/basin-head-fisheries-museum,,Tourism and Culture,pe/tourism-and-culture,,http://www.gov.pe.ca/tourism/mahf-info/dg.inc.php3,Saskatchewan,SK,"Index of Departments, Disivions and Sections",http://www.gov.pe.ca,Beaconsfield 2 Kent Street Charlottetown PEI C1A 1M6,Harry KiellyDr. David L Keenlyside,,,6/7/13,6/7/13
Beaconsfield Historic House,,pe/beaconsfield-historic-house,,Tourism and Culture,pe/tourism-and-culture,,http://www.gov.pe.ca/tourism/mahf-info/dg.inc.php3,Saskatchewan,SK,"Index of Departments, Disivions and Sections",http://www.gov.pe.ca,Beaconsfield 2 Kent Street Charlottetown PEI C1A 1M6,Harry KiellyDr. David L Keenlyside,,,6/7/13,6/7/13
Bioscience,,pe/bioscience,,Innovation and Advanced Learning,pe/innovation-and-advanced-learning,,http://www.gov.pe.ca/ial/ip-info/dg.inc.php3,Saskatchewan,SK,"Index of Departments, Disivions and Sections",http://www.gov.pe.ca,"94 Euston Street PO Box 910 Charlottetown, PE C1A 7L9","Cheryl L. Paynter, CA",,,6/7/13,6/7/13
"Boiler, Pressure Vessel, LP Gas, Plumbing and Home Heat Tank Inspection",,pe/boiler-pressure-vessel-lp-gas-plumbing-and-home-heat-tank-inspection,,"Environment, Labour and Justice",pe/environment-labour-and-justice,,http://www.gov.pe.ca/jps/env-info/dg.inc.php3,Saskatchewan,SK,"Index of Departments, Disivions and Sections",http://www.gov.pe.ca,"Jones Building, 4th Floor 11 Kent Street PO Box 2000, Charlottetown, PE C1A 7N8","Jim Young, P.Eng.",,,6/7/13,6/7/13
Bridge Maintenance,,pe/bridge-maintenance,,Transportation and Infrastructure,pe/transportation-and-infrastructure,,http://www.gov.pe.ca/tir/cp-info/dg.inc.php3,Saskatchewan,SK,"Index of Departments, Disivions and Sections",http://www.gov.pe.ca,"3rd Floor, Jones Building 11 Kent Street Charlottetown, PE C1A 7N8","Stephen J Yeo, P. Eng",,,6/7/13,6/7/13
Budget Management Section,,pe/budget-management-section,,"Finance, Energy  and Municipal Affairs",pe/finance-energy-and-municipal-affairs,,http://www.gov.pe.ca/finance/fm-info/dg.inc.php3,Saskatchewan,SK,"Index of Departments, Disivions and Sections",http://www.gov.pe.ca,"Third Floor, South Shaw Building 95 Rochford Street PO Box 2000 Charlottetown, PE C1A 7N8","Jim Miles, CA",,,6/7/13,6/7/13
Building Maintenance and Accommodations,,pe/building-maintenance-and-accommodations,,Transportation and Infrastructure,pe/transportation-and-infrastructure,,http://www.gov.pe.ca/tir/pwap-info/dg.inc.php3,Saskatchewan,SK,"Index of Departments, Disivions and Sections",http://www.gov.pe.ca,"Third Floor, Jones Building 11 Kent Street Charlottetown, PE C1A 7N8","Alan Maynard, P. Eng",,,6/7/13,6/7/13
Building Standards,,pe/building-standards,,"Environment, Labour and Justice",pe/environment-labour-and-justice,,http://www.gov.pe.ca/jps/env-info/dg.inc.php3,Saskatchewan,SK,"Index of Departments, Disivions and Sections",http://www.gov.pe.ca,"Jones Building, 4th Floor 11 Kent Street PO Box 2000, Charlottetown, PE C1A 7N8","Jim Young, P.Eng.",,,6/7/13,6/7/13
Business Application Services,,pe/business-application-services,,"Finance, Energy  and Municipal Affairs",pe/finance-energy-and-municipal-affairs,,http://www.gov.pe.ca/finance/itss-info/dg.inc.php3,Saskatchewan,SK,"Index of Departments, Disivions and Sections",http://www.gov.pe.ca,"Sullivan Building, 5th floor PO Box 2000 Charlottetown PE C1A 7N8","Norman MacDonald, COO",,,6/7/13,6/7/13
Business Continuity,,pe/business-continuity,,"Environment, Labour and Justice",pe/environment-labour-and-justice,,http://www.gov.pe.ca/jps/csajp-info/dg.inc.php3,Saskatchewan,SK,"Index of Departments, Disivions and Sections",http://www.gov.pe.ca,"Fourth Floor, Shaw Building 105 Rochford Street Charlottetown, PE C1A 7N8",Erin Mitchell,,,6/7/13,6/7/13
Business Development and Integration,,pe/business-development-and-integration,,Innovation and Advanced Learning,pe/innovation-and-advanced-learning,,http://www.gov.pe.ca/ial/ip-info/dg.inc.php3,Saskatchewan,SK,"Index of Departments, Disivions and Sections",http://www.gov.pe.ca,"94 Euston Street PO Box 910 Charlottetown, PE C1A 7L9","Cheryl L. Paynter, CA",,,6/7/13,6/7/13
Business Development,,pe/business-development,,Innovation and Advanced Learning,pe/innovation-and-advanced-learning,,http://www.gov.pe.ca/ial/ip-info/dg.inc.php3,Saskatchewan,SK,"Index of Departments, Disivions and Sections",http://www.gov.pe.ca,"94 Euston Street PO Box 910 Charlottetown, PE C1A 7L9","Cheryl L. Paynter, CA",,,6/7/13,6/7/13
Business Infrastructure Services,,pe/business-infrastructure-services,,"Finance, Energy  and Municipal Affairs",pe/finance-energy-and-municipal-affairs,,http://www.gov.pe.ca/finance/itss-info/dg.inc.php3,Saskatchewan,SK,"Index of Departments, Disivions and Sections",http://www.gov.pe.ca,"Sullivan Building, 5th floor PO Box 2000 Charlottetown PE C1A 7N8","Norman MacDonald, COO",,,6/7/13,6/7/13
Business Office (Comptroller),,pe/business-office-comptroller,,Health PEI,pe/health-pei,,http://www.healthpei.ca/fs-info/dg.inc.php3,Saskatchewan,SK,"Index of Departments, Disivions and Sections",http://www.gov.pe.ca,,Denise Lewis Fleming,,,6/7/13,6/7/13
Capital Projects,,pe/capital-projects,,Transportation and Infrastructure,pe/transportation-and-infrastructure,,http://www.gov.pe.ca/tir/cp-info/dg.inc.php3,Saskatchewan,SK,"Index of Departments, Disivions and Sections",http://www.gov.pe.ca,"3rd Floor, Jones Building 11 Kent Street Charlottetown, PE C1A 7N8","Stephen J Yeo, P. Eng",,,6/7/13,6/7/13
Central Forest District Office,,pe/central-forest-district-office,,Agriculture and Forestry,pe/agriculture-and-forestry,,http://www.gov.pe.ca/af/ffaw-info/dg.inc.php3,Saskatchewan,SK,"Index of Departments, Disivions and Sections",http://www.gov.pe.ca,"J. Frank Gaudet Tree Nursery Box 2000 183 Upton Rd. Charlottetown C1A 7N8
Telephone: (902) 368 4700
Facsimile: (902) 368 471",Kate E MacQuarrie,,,6/7/13,6/7/13
Central Forest District Office,,pe/central-forest-district-office,,Agriculture and Forestry,pe/agriculture-and-forestry,,http://www.gov.pe.ca/af/ffaw-info/dg.inc.php3,Saskatchewan,SK,"Index of Departments, Disivions and Sections",http://www.gov.pe.ca,"J. Frank Gaudet Tree Nursery Box 2000 183 Upton Rd. Charlottetown C1A 7N8
Telephone: (902) 368 4700
Facsimile: (902) 368 471",Kate E MacQuarrie,,,6/7/13,6/7/13
Central Region,,pe/central-region,,Transportation and Infrastructure,pe/transportation-and-infrastructure,,http://www.gov.pe.ca/tir/hm-info/dg.inc.php3,Saskatchewan,SK,"Index of Departments, Disivions and Sections",http://www.gov.pe.ca,"Provincial Headquarters Park Street & Riverside Drive PO Box 2000 Charlottetown, PE C1A 7N8","Darren Chaisson, P. Eng",,,6/7/13,6/7/13
Central Region,,pe/central-region,,Transportation and Infrastructure,pe/transportation-and-infrastructure,,http://www.gov.pe.ca/tir/hm-info/dg.inc.php3,Saskatchewan,SK,"Index of Departments, Disivions and Sections",http://www.gov.pe.ca,"Provincial Headquarters Park Street & Riverside Drive PO Box 2000 Charlottetown, PE C1A 7N8","Darren Chaisson, P. Eng",,,6/7/13,6/7/13
Central Systems Approvals and Monitoring,,pe/central-systems-approvals-and-monitoring,,"Environment, Labour and Justice",pe/environment-labour-and-justice,,http://www.gov.pe.ca/jps/env-info/dg.inc.php3,Saskatchewan,SK,"Index of Departments, Disivions and Sections",http://www.gov.pe.ca,"Jones Building, 4th Floor 11 Kent Street PO Box 2000, Charlottetown, PE C1A 7N8","Jim Young, P.Eng.",,,6/7/13,6/7/13
Charlottetown Location,,pe/charlottetown-location,,"Environment, Labour and Justice",pe/environment-labour-and-justice,,http://www.gov.pe.ca/jps/cacs-info/dg.inc.php3,Saskatchewan,SK,"Index of Departments, Disivions and Sections",http://www.gov.pe.ca,"109 Water Street Summerside, PE C1N 1A8",John R Picketts,,,6/7/13,6/7/13
Charlottetown Location,,pe/charlottetown-location,,"Environment, Labour and Justice",pe/environment-labour-and-justice,,http://www.gov.pe.ca/jps/cacs-info/dg.inc.php3,Saskatchewan,SK,"Index of Departments, Disivions and Sections",http://www.gov.pe.ca,"109 Water Street Summerside, PE C1N 1A8",John R Picketts,,,6/7/13,6/7/13
Charlottetown Location,,pe/charlottetown-location,,"Environment, Labour and Justice",pe/environment-labour-and-justice,,http://www.gov.pe.ca/jps/cacs-info/dg.inc.php3,Saskatchewan,SK,"Index of Departments, Disivions and Sections",http://www.gov.pe.ca,"109 Water Street Summerside, PE C1N 1A8",John R Picketts,,,6/7/13,6/7/13
Charlottetown Location,,pe/charlottetown-location,,"Environment, Labour and Justice",pe/environment-labour-and-justice,,http://www.gov.pe.ca/jps/cao-info/dg.inc.php3,Saskatchewan,SK,"Index of Departments, Disivions and Sections",http://www.gov.pe.ca,"197 Richmond Street Charlottetown, PEI C1A 1J3",Cyndria L Wedge,,,6/7/13,6/7/13
Charlottetown Location,,pe/charlottetown-location,,"Environment, Labour and Justice",pe/environment-labour-and-justice,,http://www.gov.pe.ca/jps/la-info/dg.inc.php3,Saskatchewan,SK,"Index of Departments, Disivions and Sections",http://www.gov.pe.ca,"40 Great George Street P.O. Box 2000 Charlottetown, P.E.I C1A 7N8","W. Kent Brown, Q.C.",,,6/7/13,6/7/13
Charlottetown,,pe/charlottetown,,"Finance, Energy  and Municipal Affairs",pe/finance-energy-and-municipal-affairs,,http://www.gov.pe.ca/finance/tapr-info/dg.inc.php3,Saskatchewan,SK,"Index of Departments, Disivions and Sections",http://www.gov.pe.ca,"Shaw Building, 1st Floor 95 Rochford Street PO Box 2000 Charlottetown, PE C1A 7N8",Elizabeth (Beth) Gaudet,,,6/7/13,6/7/13
Charlottetown,,pe/charlottetown,,"Finance, Energy  and Municipal Affairs",pe/finance-energy-and-municipal-affairs,,http://www.gov.pe.ca/finance/tapr-info/dg.inc.php3,Saskatchewan,SK,"Index of Departments, Disivions and Sections",http://www.gov.pe.ca,"Shaw Building, 1st Floor 95 Rochford Street PO Box 2000 Charlottetown, PE C1A 7N8",Elizabeth (Beth) Gaudet,,,6/7/13,6/7/13
Charlottetown,,pe/charlottetown,,"Finance, Energy  and Municipal Affairs",pe/finance-energy-and-municipal-affairs,,http://www.gov.pe.ca/finance/tapr-info/dg.inc.php3,Saskatchewan,SK,"Index of Departments, Disivions and Sections",http://www.gov.pe.ca,"Shaw Building, 1st Floor 95 Rochford Street PO Box 2000 Charlottetown, PE C1A 7N8",Elizabeth (Beth) Gaudet,,,6/7/13,6/7/13
Charlottetown,,pe/charlottetown,,Innovation and Advanced Learning,pe/innovation-and-advanced-learning,,http://www.gov.pe.ca/ial/ski-info/dg.inc.php3,Saskatchewan,SK,"Index of Departments, Disivions and Sections",http://www.gov.pe.ca,"Atlantic Technology Centre 90 University Avenue, Suite 212 Charlottetown, PE C1A 4K9",Birt MacKinnon,,,6/7/13,6/7/13
Charlottetown,,pe/charlottetown,,"Environment, Labour and Justice",pe/environment-labour-and-justice,,http://www.gov.pe.ca/jps/lacs-info/dg.inc.php3,Saskatchewan,SK,"Index of Departments, Disivions and Sections",http://www.gov.pe.ca,"Fourth Floor,Shaw Building 95 Rochford Street PO Box 2000 Charlottetown, PEI C1A 7N8","Barrie L. Grandy, QC",,,6/7/13,6/7/13
Chemistry Laboratory,,pe/chemistry-laboratory,,"Environment, Labour and Justice",pe/environment-labour-and-justice,,http://www.gov.pe.ca/jps/env-info/dg.inc.php3,Saskatchewan,SK,"Index of Departments, Disivions and Sections",http://www.gov.pe.ca,"Jones Building, 4th Floor 11 Kent Street PO Box 2000, Charlottetown, PE C1A 7N8","Jim Young, P.Eng.",,,6/7/13,6/7/13
Chief Public Health Office,,pe/chief-public-health-office,,Health and Wellness,pe/health-and-wellness,,http://www.gov.pe.ca/health/cpho-info/dg.inc.php3,Saskatchewan,SK,"Index of Departments, Disivions and Sections",http://www.gov.pe.ca,,Dr. Heather G. Morrison,,,6/7/13,6/7/13
Child and Family Services,,pe/child-and-family-services,,Community Services and  Seniors,pe/community-services-and-seniors,,http://www.gov.pe.ca/sss/cafs-info/dg.inc.php3,Saskatchewan,SK,"Index of Departments, Disivions and Sections",http://www.gov.pe.ca,,Rona Smith,,,6/7/13,6/7/13
Child and Student  Services,,pe/child-and-student-services,,Education and Early Childhood Development,pe/education-and-early-childhood-development,,http://www.gov.pe.ca/education/laecd-info/dg.inc.php3,Saskatchewan,SK,"Index of Departments, Disivions and Sections",http://www.gov.pe.ca,,Imelda Arsenault,,,6/7/13,6/7/13
Child Protection/Youth Services,,pe/child-protection-youth-services,,Community Services and  Seniors,pe/community-services-and-seniors,,http://www.gov.pe.ca/sss/cafs-info/dg.inc.php3,Saskatchewan,SK,"Index of Departments, Disivions and Sections",http://www.gov.pe.ca,,Rona Smith,,,6/7/13,6/7/13
Child Support Guidelines Office,,pe/child-support-guidelines-office,,"Environment, Labour and Justice",pe/environment-labour-and-justice,,http://www.gov.pe.ca/jps/lacs-info/dg.inc.php3,Saskatchewan,SK,"Index of Departments, Disivions and Sections",http://www.gov.pe.ca,"Fourth Floor,Shaw Building 95 Rochford Street PO Box 2000 Charlottetown, PEI C1A 7N8","Barrie L. Grandy, QC",,,6/7/13,6/7/13
Classification Services,,pe/classification-services,,"Finance, Energy  and Municipal Affairs",pe/finance-energy-and-municipal-affairs,,http://www.gov.pe.ca/finance/psc-info/dg.inc.php3,Saskatchewan,SK,"Index of Departments, Disivions and Sections",http://www.gov.pe.ca,"First Floor Shaw Building North 105 Rochford Street P.O Box 2000 Charlottetown, PEI C1A 7N8",Andrew M Thompson,,,6/7/13,6/7/13
Client Services,,pe/client-services,,"Finance, Energy  and Municipal Affairs",pe/finance-energy-and-municipal-affairs,,http://www.gov.pe.ca/finance/itss-info/dg.inc.php3,Saskatchewan,SK,"Index of Departments, Disivions and Sections",http://www.gov.pe.ca,"Sullivan Building, 5th floor PO Box 2000 Charlottetown PE C1A 7N8","Norman MacDonald, COO",,,6/7/13,6/7/13
Client Support,,pe/client-support,,"Finance, Energy  and Municipal Affairs",pe/finance-energy-and-municipal-affairs,,http://www.gov.pe.ca/finance/itss-info/dg.inc.php3,Saskatchewan,SK,"Index of Departments, Disivions and Sections",http://www.gov.pe.ca,"Sullivan Building, 5th floor PO Box 2000 Charlottetown PE C1A 7N8","Norman MacDonald, COO",,,6/7/13,6/7/13
Climate Change and Air Management,,pe/climate-change-and-air-management,,"Environment, Labour and Justice",pe/environment-labour-and-justice,,http://www.gov.pe.ca/jps/env-info/dg.inc.php3,Saskatchewan,SK,"Index of Departments, Disivions and Sections",http://www.gov.pe.ca,"Jones Building, 4th Floor 11 Kent Street PO Box 2000, Charlottetown, PE C1A 7N8","Jim Young, P.Eng.",,,6/7/13,6/7/13
Clinical Information System,,pe/clinical-information-system,,"Finance, Energy  and Municipal Affairs",pe/finance-energy-and-municipal-affairs,,http://www.gov.pe.ca/finance/itss-info/dg.inc.php3,Saskatchewan,SK,"Index of Departments, Disivions and Sections",http://www.gov.pe.ca,"Sullivan Building, 5th floor PO Box 2000 Charlottetown PE C1A 7N8","Norman MacDonald, COO",,,6/7/13,6/7/13
Clinical Services,,pe/clinical-services,,"Environment, Labour and Justice",pe/environment-labour-and-justice,,http://www.gov.pe.ca/jps/cacs-info/dg.inc.php3,Saskatchewan,SK,"Index of Departments, Disivions and Sections",http://www.gov.pe.ca,"109 Water Street Summerside, PE C1N 1A8",John R Picketts,,,6/7/13,6/7/13
Collections,,pe/collections,,Tourism and Culture,pe/tourism-and-culture,,http://www.gov.pe.ca/tourism/mahf-info/dg.inc.php3,Saskatchewan,SK,"Index of Departments, Disivions and Sections",http://www.gov.pe.ca,Beaconsfield 2 Kent Street Charlottetown PEI C1A 1M6,Harry KiellyDr. David L Keenlyside,,,6/7/13,6/7/13
Commercial and Resource Lending,,pe/commercial-and-resource-lending,,Innovation and Advanced Learning,pe/innovation-and-advanced-learning,,http://www.gov.pe.ca/ial/fp-info/dg.inc.php3,Saskatchewan,SK,"Index of Departments, Disivions and Sections",http://www.gov.pe.ca,"Commercial and Resource Lending 98 Fitzroy Street, 2nd Floor PO Box 1176 Charlottetown, Prince Edward Island C1A 1R7 Canada Developmental Lending 94 Euston Street, 2nd Floor PO Box 1176 Charlottetown, Prince Edward Island C1A 7M8","Jamie Aiken, CA",,,6/7/13,6/7/13
Communications PEI,,pe/communications-pei,,Executive Council Office,pe/executive-council-office,,http://www.gov.pe.ca/eco/cp-info/dg.inc.php3,Saskatchewan,SK,"Index of Departments, Disivions and Sections",http://www.gov.pe.ca,"Telephone: (902) 368-4000
Tollfree: 1 800 236",Sheri Coles,,,6/7/13,6/7/13
Communications,,pe/communications,,Health PEI,pe/health-pei,,http://www.healthpei.ca/cdai-info/dg.inc.php3,Saskatchewan,SK,"Index of Departments, Disivions and Sections",http://www.gov.pe.ca,,Pamela Trainor,,,6/7/13,6/7/13
Community and Correctional Services,,pe/community-and-correctional-services,,"Environment, Labour and Justice",pe/environment-labour-and-justice,,http://www.gov.pe.ca/jps/cacs-info/dg.inc.php3,Saskatchewan,SK,"Index of Departments, Disivions and Sections",http://www.gov.pe.ca,"109 Water Street Summerside, PE C1N 1A8",John R Picketts,,,6/7/13,6/7/13
Community Hospitals and Primary Health Care,,pe/community-hospitals-and-primary-health-care,,Health PEI,pe/health-pei,,http://www.healthpei.ca/chaphc-info/dg.inc.php3,Saskatchewan,SK,"Index of Departments, Disivions and Sections",http://www.gov.pe.ca,,Deborah Bradley,,,6/7/13,6/7/13
Community Hospitals East,,pe/community-hospitals-east,,Health PEI,pe/health-pei,,http://www.healthpei.ca/chaphc-info/dg.inc.php3,Saskatchewan,SK,"Index of Departments, Disivions and Sections",http://www.gov.pe.ca,,Deborah Bradley,,,6/7/13,6/7/13
Community Hospitals West,,pe/community-hospitals-west,,Health PEI,pe/health-pei,,http://www.healthpei.ca/chaphc-info/dg.inc.php3,Saskatchewan,SK,"Index of Departments, Disivions and Sections",http://www.gov.pe.ca,,Deborah Bradley,,,6/7/13,6/7/13
Community Programs,,pe/community-programs,,"Environment, Labour and Justice",pe/environment-labour-and-justice,,http://www.gov.pe.ca/jps/cacs-info/dg.inc.php3,Saskatchewan,SK,"Index of Departments, Disivions and Sections",http://www.gov.pe.ca,"109 Water Street Summerside, PE C1N 1A8",John R Picketts,,,6/7/13,6/7/13
Community Safety and Justice Policy,,pe/community-safety-and-justice-policy,,"Environment, Labour and Justice",pe/environment-labour-and-justice,,http://www.gov.pe.ca/jps/csajp-info/dg.inc.php3,Saskatchewan,SK,"Index of Departments, Disivions and Sections",http://www.gov.pe.ca,"Fourth Floor, Shaw Building 105 Rochford Street Charlottetown, PE C1A 7N8",Erin Mitchell,,,6/7/13,6/7/13
Consumer Affairs,,pe/consumer-affairs,,"Environment, Labour and Justice",pe/environment-labour-and-justice,,http://www.gov.pe.ca/jps/clafs-info/dg.inc.php3,Saskatchewan,SK,"Index of Departments, Disivions and Sections",http://www.gov.pe.ca,"Fourth Floor, Shaw Building 95 Rochford Street PO Box 2000 Charlottetown, PE C1A 7N8",Katharine Tummon,,,6/7/13,6/7/13
"Consumer, Labour and Financial Services",,pe/consumer-labour-and-financial-services,,"Environment, Labour and Justice",pe/environment-labour-and-justice,,http://www.gov.pe.ca/jps/clafs-info/dg.inc.php3,Saskatchewan,SK,"Index of Departments, Disivions and Sections",http://www.gov.pe.ca,"Fourth Floor, Shaw Building 95 Rochford Street PO Box 2000 Charlottetown, PE C1A 7N8",Katharine Tummon,,,6/7/13,6/7/13
Corporate and Financial Services,,pe/corporate-and-financial-services,,Agriculture and Forestry,pe/agriculture-and-forestry,,http://www.gov.pe.ca/af/cafs-info/dg.inc.php3,Saskatchewan,SK,"Index of Departments, Disivions and Sections",http://www.gov.pe.ca,"Fifth Floor, Jones Building, 11 Kent Street, P.O. Box 2000, Charlottetown, PEI C1A 7N8",Jerry Gavin,,,6/7/13,6/7/13
Corporate and Tax Administration Services,,pe/corporate-and-tax-administration-services,,"Finance, Energy  and Municipal Affairs",pe/finance-energy-and-municipal-affairs,,http://www.gov.pe.ca/finance/tapr-info/dg.inc.php3,Saskatchewan,SK,"Index of Departments, Disivions and Sections",http://www.gov.pe.ca,"Shaw Building, 1st Floor 95 Rochford Street PO Box 2000 Charlottetown, PE C1A 7N8",Elizabeth (Beth) Gaudet,,,6/7/13,6/7/13
Corporate Communications,,pe/corporate-communications,,Executive Council Office,pe/executive-council-office,,http://www.gov.pe.ca/eco/cp-info/dg.inc.php3,Saskatchewan,SK,"Index of Departments, Disivions and Sections",http://www.gov.pe.ca,"Telephone: (902) 368-4000
Tollfree: 1 800 236",Sheri Coles,,,6/7/13,6/7/13
Corporate Development and Innovation,,pe/corporate-development-and-innovation,,Health PEI,pe/health-pei,,http://www.healthpei.ca/cdai-info/dg.inc.php3,Saskatchewan,SK,"Index of Departments, Disivions and Sections",http://www.gov.pe.ca,,Pamela Trainor,,,6/7/13,6/7/13
"Corporate Operations, Finance & Planning",,pe/corporate-operations-finance-planning,,"Finance, Energy  and Municipal Affairs",pe/finance-energy-and-municipal-affairs,,http://www.gov.pe.ca/finance/itss-info/dg.inc.php3,Saskatchewan,SK,"Index of Departments, Disivions and Sections",http://www.gov.pe.ca,"Sullivan Building, 5th floor PO Box 2000 Charlottetown PE C1A 7N8","Norman MacDonald, COO",,,6/7/13,6/7/13
Corporate Services,,pe/corporate-services,,Tourism and Culture,pe/tourism-and-culture,,http://www.gov.pe.ca/tourism/cs-info/dg.inc.php3,Saskatchewan,SK,"Index of Departments, Disivions and Sections",http://www.gov.pe.ca,"P.O. Box 2000 Charlottetown, PE C1A 7N8","Kevin Jenkins, CA",,,6/7/13,6/7/13
Corporate Services,,pe/corporate-services,,Tourism and Culture,pe/tourism-and-culture,,http://www.gov.pe.ca/tourism/cs-info/dg.inc.php3,Saskatchewan,SK,"Index of Departments, Disivions and Sections",http://www.gov.pe.ca,"P.O. Box 2000 Charlottetown, PE C1A 7N8","Kevin Jenkins, CA",,,6/7/13,6/7/13
Corporate Services,,pe/corporate-services,,Tourism and Culture,pe/tourism-and-culture,,http://www.gov.pe.ca/tourism/plcc-info/dg.inc.php3,Saskatchewan,SK,"Index of Departments, Disivions and Sections",http://www.gov.pe.ca,"3 Garfield Street P.O. Box 967 Charlottetown, PE C1A 7M4",Brooke MacMillan,,,6/7/13,6/7/13
Corporate Support,,pe/corporate-support,,Community Services and  Seniors,pe/community-services-and-seniors,,http://www.gov.pe.ca/sss/hsacs-info/dg.inc.php3,Saskatchewan,SK,"Index of Departments, Disivions and Sections",http://www.gov.pe.ca,"Second Floor, Jones Building 11 Kent Street PO Box 2000, Charlottetown, PE C1A 7N8",W. Lorne Clow,,,6/7/13,6/7/13
Corporations,,pe/corporations,,"Environment, Labour and Justice",pe/environment-labour-and-justice,,http://www.gov.pe.ca/jps/clafs-info/dg.inc.php3,Saskatchewan,SK,"Index of Departments, Disivions and Sections",http://www.gov.pe.ca,"Fourth Floor, Shaw Building 95 Rochford Street PO Box 2000 Charlottetown, PE C1A 7N8",Katharine Tummon,,,6/7/13,6/7/13
Correctional Programs,,pe/correctional-programs,,"Environment, Labour and Justice",pe/environment-labour-and-justice,,http://www.gov.pe.ca/jps/cacs-info/dg.inc.php3,Saskatchewan,SK,"Index of Departments, Disivions and Sections",http://www.gov.pe.ca,"109 Water Street Summerside, PE C1N 1A8",John R Picketts,,,6/7/13,6/7/13
Court Services,,pe/court-services,,"Environment, Labour and Justice",pe/environment-labour-and-justice,,http://www.gov.pe.ca/jps/lacs-info/dg.inc.php3,Saskatchewan,SK,"Index of Departments, Disivions and Sections",http://www.gov.pe.ca,"Fourth Floor,Shaw Building 95 Rochford Street PO Box 2000 Charlottetown, PEI C1A 7N8","Barrie L. Grandy, QC",,,6/7/13,6/7/13
Creative Services,,pe/creative-services,,Executive Council Office,pe/executive-council-office,,http://www.gov.pe.ca/eco/cp-info/dg.inc.php3,Saskatchewan,SK,"Index of Departments, Disivions and Sections",http://www.gov.pe.ca,"Telephone: (902) 368-4000
Tollfree: 1 800 236",Sheri Coles,,,6/7/13,6/7/13
Criminal Legal Aid,,pe/criminal-legal-aid,,"Environment, Labour and Justice",pe/environment-labour-and-justice,,http://www.gov.pe.ca/jps/la-info/dg.inc.php3,Saskatchewan,SK,"Index of Departments, Disivions and Sections",http://www.gov.pe.ca,"40 Great George Street P.O. Box 2000 Charlottetown, P.E.I C1A 7N8","W. Kent Brown, Q.C.",,,6/7/13,6/7/13
Criminal Legal Aid,,pe/criminal-legal-aid,,"Environment, Labour and Justice",pe/environment-labour-and-justice,,http://www.gov.pe.ca/jps/la-info/dg.inc.php3,Saskatchewan,SK,"Index of Departments, Disivions and Sections",http://www.gov.pe.ca,"40 Great George Street P.O. Box 2000 Charlottetown, P.E.I C1A 7N8","W. Kent Brown, Q.C.",,,6/7/13,6/7/13
Crown Attorneys Office,,pe/crown-attorneys-office,,"Environment, Labour and Justice",pe/environment-labour-and-justice,,http://www.gov.pe.ca/jps/cao-info/dg.inc.php3,Saskatchewan,SK,"Index of Departments, Disivions and Sections",http://www.gov.pe.ca,"197 Richmond Street Charlottetown, PEI C1A 1J3",Cyndria L Wedge,,,6/7/13,6/7/13
Dairy Lab,,pe/dairy-lab,,Agriculture and Forestry,pe/agriculture-and-forestry,,http://www.gov.pe.ca/af/pal-info/dg.inc.php3,Saskatchewan,SK,"Index of Departments, Disivions and Sections",http://www.gov.pe.ca,"23 Innovation Way Charlottetown, PE C1E OB7",Tracy Wood,,,6/7/13,6/7/13
Data Services,,pe/data-services,,"Finance, Energy  and Municipal Affairs",pe/finance-energy-and-municipal-affairs,,http://www.gov.pe.ca/finance/itss-info/dg.inc.php3,Saskatchewan,SK,"Index of Departments, Disivions and Sections",http://www.gov.pe.ca,"Sullivan Building, 5th floor PO Box 2000 Charlottetown PE C1A 7N8","Norman MacDonald, COO",,,6/7/13,6/7/13
Design and Bridge Maintenance,,pe/design-and-bridge-maintenance,,Transportation and Infrastructure,pe/transportation-and-infrastructure,,http://www.gov.pe.ca/tir/cp-info/dg.inc.php3,Saskatchewan,SK,"Index of Departments, Disivions and Sections",http://www.gov.pe.ca,"3rd Floor, Jones Building 11 Kent Street Charlottetown, PE C1A 7N8","Stephen J Yeo, P. Eng",,,6/7/13,6/7/13
Developmental Lending,,pe/developmental-lending,,Innovation and Advanced Learning,pe/innovation-and-advanced-learning,,http://www.gov.pe.ca/ial/fp-info/dg.inc.php3,Saskatchewan,SK,"Index of Departments, Disivions and Sections",http://www.gov.pe.ca,"Commercial and Resource Lending 98 Fitzroy Street, 2nd Floor PO Box 1176 Charlottetown, Prince Edward Island C1A 1R7 Canada Developmental Lending 94 Euston Street, 2nd Floor PO Box 1176 Charlottetown, Prince Edward Island C1A 7M8","Jamie Aiken, CA",,,6/7/13,6/7/13
Digital Marketing,,pe/digital-marketing,,Tourism and Culture,pe/tourism-and-culture,,http://www.gov.pe.ca/tourism/mcsac-info/dg.inc.php3,Saskatchewan,SK,"Index of Departments, Disivions and Sections",http://www.gov.pe.ca,,Brenda Gallant,,,6/7/13,6/7/13
Diversity Planning,,pe/diversity-planning,,"Finance, Energy  and Municipal Affairs",pe/finance-energy-and-municipal-affairs,,http://www.gov.pe.ca/finance/psc-info/dg.inc.php3,Saskatchewan,SK,"Index of Departments, Disivions and Sections",http://www.gov.pe.ca,"First Floor Shaw Building North 105 Rochford Street P.O Box 2000 Charlottetown, PEI C1A 7N8",Andrew M Thompson,,,6/7/13,6/7/13
Drinking Water and Wastewater Management,,pe/drinking-water-and-wastewater-management,,"Environment, Labour and Justice",pe/environment-labour-and-justice,,http://www.gov.pe.ca/jps/env-info/dg.inc.php3,Saskatchewan,SK,"Index of Departments, Disivions and Sections",http://www.gov.pe.ca,"Jones Building, 4th Floor 11 Kent Street PO Box 2000, Charlottetown, PE C1A 7N8","Jim Young, P.Eng.",,,6/7/13,6/7/13
Drug Information System,,pe/drug-information-system,,Health PEI,pe/health-pei,,http://www.healthpei.ca/pcs-info/dg.inc.php3,Saskatchewan,SK,"Index of Departments, Disivions and Sections",http://www.gov.pe.ca,,Jamie MacDonald,,,6/7/13,6/7/13
DVS & RMS Project,,pe/dvs-rms-project,,"Finance, Energy  and Municipal Affairs",pe/finance-energy-and-municipal-affairs,,http://www.gov.pe.ca/finance/itss-info/dg.inc.php3,Saskatchewan,SK,"Index of Departments, Disivions and Sections",http://www.gov.pe.ca,"Sullivan Building, 5th floor PO Box 2000 Charlottetown PE C1A 7N8","Norman MacDonald, COO",,,6/7/13,6/7/13
Early Childhood Development and Kindergarten,,pe/early-childhood-development-and-kindergarten,,Education and Early Childhood Development,pe/education-and-early-childhood-development,,http://www.gov.pe.ca/education/laecd-info/dg.inc.php3,Saskatchewan,SK,"Index of Departments, Disivions and Sections",http://www.gov.pe.ca,,Imelda Arsenault,,,6/7/13,6/7/13
"Eastern, Central, Western Regions",,pe/eastern-central-western-regions,,Transportation and Infrastructure,pe/transportation-and-infrastructure,,http://www.gov.pe.ca/tir/cp-info/dg.inc.php3,Saskatchewan,SK,"Index of Departments, Disivions and Sections",http://www.gov.pe.ca,"3rd Floor, Jones Building 11 Kent Street Charlottetown, PE C1A 7N8","Stephen J Yeo, P. Eng",,,6/7/13,6/7/13
Eastern Forest District Office,,pe/eastern-forest-district-office,,Agriculture and Forestry,pe/agriculture-and-forestry,,http://www.gov.pe.ca/af/ffaw-info/dg.inc.php3,Saskatchewan,SK,"Index of Departments, Disivions and Sections",http://www.gov.pe.ca,"J. Frank Gaudet Tree Nursery Box 2000 183 Upton Rd. Charlottetown C1A 7N8
Telephone: (902) 368 4700
Facsimile: (902) 368 471",Kate E MacQuarrie,,,6/7/13,6/7/13
Eastern Forest District Office,,pe/eastern-forest-district-office,,Agriculture and Forestry,pe/agriculture-and-forestry,,http://www.gov.pe.ca/af/ffaw-info/dg.inc.php3,Saskatchewan,SK,"Index of Departments, Disivions and Sections",http://www.gov.pe.ca,"J. Frank Gaudet Tree Nursery Box 2000 183 Upton Rd. Charlottetown C1A 7N8
Telephone: (902) 368 4700
Facsimile: (902) 368 471",Kate E MacQuarrie,,,6/7/13,6/7/13
Eastern Habitat Joint Venture Program,,pe/eastern-habitat-joint-venture-program,,Agriculture and Forestry,pe/agriculture-and-forestry,,http://www.gov.pe.ca/af/ffaw-info/dg.inc.php3,Saskatchewan,SK,"Index of Departments, Disivions and Sections",http://www.gov.pe.ca,"J. Frank Gaudet Tree Nursery Box 2000 183 Upton Rd. Charlottetown C1A 7N8
Telephone: (902) 368 4700
Facsimile: (902) 368 471",Kate E MacQuarrie,,,6/7/13,6/7/13
Eastern Region,,pe/eastern-region,,Transportation and Infrastructure,pe/transportation-and-infrastructure,,http://www.gov.pe.ca/tir/cp-info/dg.inc.php3,Saskatchewan,SK,"Index of Departments, Disivions and Sections",http://www.gov.pe.ca,"3rd Floor, Jones Building 11 Kent Street Charlottetown, PE C1A 7N8","Stephen J Yeo, P. Eng",,,6/7/13,6/7/13
Eastern Region,,pe/eastern-region,,Transportation and Infrastructure,pe/transportation-and-infrastructure,,http://www.gov.pe.ca/tir/hm-info/dg.inc.php3,Saskatchewan,SK,"Index of Departments, Disivions and Sections",http://www.gov.pe.ca,"Provincial Headquarters Park Street & Riverside Drive PO Box 2000 Charlottetown, PE C1A 7N8","Darren Chaisson, P. Eng",,,6/7/13,6/7/13
Eastern Region,,pe/eastern-region,,Transportation and Infrastructure,pe/transportation-and-infrastructure,,http://www.gov.pe.ca/tir/hm-info/dg.inc.php3,Saskatchewan,SK,"Index of Departments, Disivions and Sections",http://www.gov.pe.ca,"Provincial Headquarters Park Street & Riverside Drive PO Box 2000 Charlottetown, PE C1A 7N8","Darren Chaisson, P. Eng",,,6/7/13,6/7/13
"Economics, Statistics and Federal Fiscal Relations",,pe/economics-statistics-and-federal-fiscal-relations,,"Finance, Energy  and Municipal Affairs",pe/finance-energy-and-municipal-affairs,,http://www.gov.pe.ca/finance/esaffr-info/dg.inc.php3,Saskatchewan,SK,"Index of Departments, Disivions and Sections",http://www.gov.pe.ca,"Second Floor Shaw Building 95 Rochford Street P.O. Box 2000 Charlottetown, PEI C1A 7N8",Nigel Burns,,,6/7/13,6/7/13
"Economic, Trade, Policy and Strategy",,pe/economic-trade-policy-and-strategy,,Innovation and Advanced Learning,pe/innovation-and-advanced-learning,,http://www.gov.pe.ca/ial/etpas-info/dg.inc.php3,Saskatchewan,SK,"Index of Departments, Disivions and Sections",http://www.gov.pe.ca,"Shaw Building, 5th Floor 105 Rochford Street PO Box 2000 Charlottetown, PE C1A 7N8",Sandy Stewart,,,6/7/13,6/7/13
Electrical Inspection,,pe/electrical-inspection,,"Environment, Labour and Justice",pe/environment-labour-and-justice,,http://www.gov.pe.ca/jps/env-info/dg.inc.php3,Saskatchewan,SK,"Index of Departments, Disivions and Sections",http://www.gov.pe.ca,"Jones Building, 4th Floor 11 Kent Street PO Box 2000, Charlottetown, PE C1A 7N8","Jim Young, P.Eng.",,,6/7/13,6/7/13
Elevator Inspection,,pe/elevator-inspection,,"Environment, Labour and Justice",pe/environment-labour-and-justice,,http://www.gov.pe.ca/jps/env-info/dg.inc.php3,Saskatchewan,SK,"Index of Departments, Disivions and Sections",http://www.gov.pe.ca,"Jones Building, 4th Floor 11 Kent Street PO Box 2000, Charlottetown, PE C1A 7N8","Jim Young, P.Eng.",,,6/7/13,6/7/13
Elmira Railway Museum,,pe/elmira-railway-museum,,Tourism and Culture,pe/tourism-and-culture,,http://www.gov.pe.ca/tourism/mahf-info/dg.inc.php3,Saskatchewan,SK,"Index of Departments, Disivions and Sections",http://www.gov.pe.ca,Beaconsfield 2 Kent Street Charlottetown PEI C1A 1M6,Harry KiellyDr. David L Keenlyside,,,6/7/13,6/7/13
Emergency Health Services,,pe/emergency-health-services,,Health PEI,pe/health-pei,,http://www.healthpei.ca/pcs-info/dg.inc.php3,Saskatchewan,SK,"Index of Departments, Disivions and Sections",http://www.gov.pe.ca,,Jamie MacDonald,,,6/7/13,6/7/13
Emergency Measures Organization,,pe/emergency-measures-organization,,"Environment, Labour and Justice",pe/environment-labour-and-justice,,http://www.gov.pe.ca/jps/csajp-info/dg.inc.php3,Saskatchewan,SK,"Index of Departments, Disivions and Sections",http://www.gov.pe.ca,"Fourth Floor, Shaw Building 105 Rochford Street Charlottetown, PE C1A 7N8",Erin Mitchell,,,6/7/13,6/7/13
Employee Assistance Program,,pe/employee-assistance-program,,"Finance, Energy  and Municipal Affairs",pe/finance-energy-and-municipal-affairs,,http://www.gov.pe.ca/finance/psc-info/dg.inc.php3,Saskatchewan,SK,"Index of Departments, Disivions and Sections",http://www.gov.pe.ca,"First Floor Shaw Building North 105 Rochford Street P.O Box 2000 Charlottetown, PEI C1A 7N8",Andrew M Thompson,,,6/7/13,6/7/13
Employment Standards Board,,pe/employment-standards-board,,"Environment, Labour and Justice",pe/environment-labour-and-justice,,http://www.gov.pe.ca/jps/clafs-info/dg.inc.php3,Saskatchewan,SK,"Index of Departments, Disivions and Sections",http://www.gov.pe.ca,"Fourth Floor, Shaw Building 95 Rochford Street PO Box 2000 Charlottetown, PE C1A 7N8",Katharine Tummon,,,6/7/13,6/7/13
Employment Standards Board,,pe/employment-standards-board,,"Environment, Labour and Justice",pe/environment-labour-and-justice,,http://www.gov.pe.ca/jps/clafs-info/dg.inc.php3,Saskatchewan,SK,"Index of Departments, Disivions and Sections",http://www.gov.pe.ca,"Fourth Floor, Shaw Building 95 Rochford Street PO Box 2000 Charlottetown, PE C1A 7N8",Katharine Tummon,,,6/7/13,6/7/13
Employment Standards,,pe/employment-standards,,"Environment, Labour and Justice",pe/environment-labour-and-justice,,http://www.gov.pe.ca/jps/clafs-info/dg.inc.php3,Saskatchewan,SK,"Index of Departments, Disivions and Sections",http://www.gov.pe.ca,"Fourth Floor, Shaw Building 95 Rochford Street PO Box 2000 Charlottetown, PE C1A 7N8",Katharine Tummon,,,6/7/13,6/7/13
Energy and Minerals,,pe/energy-and-minerals,,"Finance, Energy  and Municipal Affairs",pe/finance-energy-and-municipal-affairs,,http://www.gov.pe.ca/finance/eam-info/dg.inc.php3,Saskatchewan,SK,"Index of Departments, Disivions and Sections",http://www.gov.pe.ca,"4th Floor Jones Building P.O. Box 2000 Charlottetown, PE C1A 7N8",Wayne MacQuarrie,,,6/7/13,6/7/13
Engineering Services,,pe/engineering-services,,Transportation and Infrastructure,pe/transportation-and-infrastructure,,http://www.gov.pe.ca/tir/cp-info/dg.inc.php3,Saskatchewan,SK,"Index of Departments, Disivions and Sections",http://www.gov.pe.ca,"3rd Floor, Jones Building 11 Kent Street Charlottetown, PE C1A 7N8","Stephen J Yeo, P. Eng",,,6/7/13,6/7/13
English As An Additional Language,,pe/english-as-an-additional-language,,Education and Early Childhood Development,pe/education-and-early-childhood-development,,http://www.gov.pe.ca/education/laecd-info/dg.inc.php3,Saskatchewan,SK,"Index of Departments, Disivions and Sections",http://www.gov.pe.ca,,Imelda Arsenault,,,6/7/13,6/7/13
English Programs,,pe/english-programs,,Education and Early Childhood Development,pe/education-and-early-childhood-development,,http://www.gov.pe.ca/education/laecd-info/dg.inc.php3,Saskatchewan,SK,"Index of Departments, Disivions and Sections",http://www.gov.pe.ca,,Imelda Arsenault,,,6/7/13,6/7/13
Enterprise Architecture Services,,pe/enterprise-architecture-services,,"Finance, Energy  and Municipal Affairs",pe/finance-energy-and-municipal-affairs,,http://www.gov.pe.ca/finance/itss-info/dg.inc.php3,Saskatchewan,SK,"Index of Departments, Disivions and Sections",http://www.gov.pe.ca,"Sullivan Building, 5th floor PO Box 2000 Charlottetown PE C1A 7N8","Norman MacDonald, COO",,,6/7/13,6/7/13
Environmental Health,,pe/environmental-health,,Health and Wellness,pe/health-and-wellness,,http://www.gov.pe.ca/health/cpho-info/dg.inc.php3,Saskatchewan,SK,"Index of Departments, Disivions and Sections",http://www.gov.pe.ca,,Dr. Heather G. Morrison,,,6/7/13,6/7/13
Environmental Land Management,,pe/environmental-land-management,,"Environment, Labour and Justice",pe/environment-labour-and-justice,,http://www.gov.pe.ca/jps/env-info/dg.inc.php3,Saskatchewan,SK,"Index of Departments, Disivions and Sections",http://www.gov.pe.ca,"Jones Building, 4th Floor 11 Kent Street PO Box 2000, Charlottetown, PE C1A 7N8","Jim Young, P.Eng.",,,6/7/13,6/7/13
Environmental Management,,pe/environmental-management,,Transportation and Infrastructure,pe/transportation-and-infrastructure,,http://www.gov.pe.ca/tir/lae-info/dg.inc.php3,Saskatchewan,SK,"Index of Departments, Disivions and Sections",http://www.gov.pe.ca,"Third Floor, Jones Building 11 Kent Street PO Box 2000 Charlottetown, PE C1A 7N8","Brian F. Thompson, P. Eng",,,6/7/13,6/7/13
Environment,,pe/environment,,"Environment, Labour and Justice",pe/environment-labour-and-justice,,http://www.gov.pe.ca/jps/env-info/dg.inc.php3,Saskatchewan,SK,"Index of Departments, Disivions and Sections",http://www.gov.pe.ca,"Jones Building, 4th Floor 11 Kent Street PO Box 2000, Charlottetown, PE C1A 7N8","Jim Young, P.Eng.",,,6/7/13,6/7/13
Epidemiology,,pe/epidemiology,,Health and Wellness,pe/health-and-wellness,,http://www.gov.pe.ca/health/cpho-info/dg.inc.php3,Saskatchewan,SK,"Index of Departments, Disivions and Sections",http://www.gov.pe.ca,,Dr. Heather G. Morrison,,,6/7/13,6/7/13
Eptek Art & Culture Centre,,pe/eptek-art-culture-centre,,Tourism and Culture,pe/tourism-and-culture,,http://www.gov.pe.ca/tourism/mahf-info/dg.inc.php3,Saskatchewan,SK,"Index of Departments, Disivions and Sections",http://www.gov.pe.ca,Beaconsfield 2 Kent Street Charlottetown PEI C1A 1M6,Harry KiellyDr. David L Keenlyside,,,6/7/13,6/7/13
Estates/Appeal,,pe/estates-appeal,,"Environment, Labour and Justice",pe/environment-labour-and-justice,,http://www.gov.pe.ca/jps/lacs-info/dg.inc.php3,Saskatchewan,SK,"Index of Departments, Disivions and Sections",http://www.gov.pe.ca,"Fourth Floor,Shaw Building 95 Rochford Street PO Box 2000 Charlottetown, PEI C1A 7N8","Barrie L. Grandy, QC",,,6/7/13,6/7/13
"Evaluation, Measurement and Business Intelligence Unit",,pe/evaluation-measurement-and-business-intelligence-unit,,Tourism and Culture,pe/tourism-and-culture,,http://www.gov.pe.ca/tourism/se&ii-info/dg.inc.php3,Saskatchewan,SK,"Index of Departments, Disivions and Sections",http://www.gov.pe.ca,,Chris K. Jones,,,6/7/13,6/7/13
Export Channel Development,,pe/export-channel-development,,Innovation and Advanced Learning,pe/innovation-and-advanced-learning,,http://www.gov.pe.ca/ial/ip-info/dg.inc.php3,Saskatchewan,SK,"Index of Departments, Disivions and Sections",http://www.gov.pe.ca,"94 Euston Street PO Box 910 Charlottetown, PE C1A 7L9","Cheryl L. Paynter, CA",,,6/7/13,6/7/13
Family Court Counsellors' Office,,pe/family-court-counsellors-office,,"Environment, Labour and Justice",pe/environment-labour-and-justice,,http://www.gov.pe.ca/jps/lacs-info/dg.inc.php3,Saskatchewan,SK,"Index of Departments, Disivions and Sections",http://www.gov.pe.ca,"Fourth Floor,Shaw Building 95 Rochford Street PO Box 2000 Charlottetown, PEI C1A 7N8","Barrie L. Grandy, QC",,,6/7/13,6/7/13
Family Law Section,,pe/family-law-section,,"Environment, Labour and Justice",pe/environment-labour-and-justice,,http://www.gov.pe.ca/jps/lacs-info/dg.inc.php3,Saskatchewan,SK,"Index of Departments, Disivions and Sections",http://www.gov.pe.ca,"Fourth Floor,Shaw Building 95 Rochford Street PO Box 2000 Charlottetown, PEI C1A 7N8","Barrie L. Grandy, QC",,,6/7/13,6/7/13
Family Legal Aid,,pe/family-legal-aid,,"Environment, Labour and Justice",pe/environment-labour-and-justice,,http://www.gov.pe.ca/jps/la-info/dg.inc.php3,Saskatchewan,SK,"Index of Departments, Disivions and Sections",http://www.gov.pe.ca,"40 Great George Street P.O. Box 2000 Charlottetown, P.E.I C1A 7N8","W. Kent Brown, Q.C.",,,6/7/13,6/7/13
Family Legal Aid,,pe/family-legal-aid,,"Environment, Labour and Justice",pe/environment-labour-and-justice,,http://www.gov.pe.ca/jps/la-info/dg.inc.php3,Saskatchewan,SK,"Index of Departments, Disivions and Sections",http://www.gov.pe.ca,"40 Great George Street P.O. Box 2000 Charlottetown, P.E.I C1A 7N8","W. Kent Brown, Q.C.",,,6/7/13,6/7/13
Farm Practices Review Board,,pe/farm-practices-review-board,,Agriculture and Forestry,pe/agriculture-and-forestry,,http://www.gov.pe.ca/af/ap&rd-info/dg.inc.php3,Saskatchewan,SK,"Index of Departments, Disivions and Sections",http://www.gov.pe.ca,"5th Floor, Jones Building 11 Kent Street Charlottetown, P.E.I. C1A 7N8",Shane Murphy,,,6/7/13,6/7/13
Finance and Administration,,pe/finance-and-administration,,Innovation and Advanced Learning,pe/innovation-and-advanced-learning,,http://www.gov.pe.ca/ial/faa-info/dg.inc.php3,Saskatchewan,SK,"Index of Departments, Disivions and Sections",http://www.gov.pe.ca,"Shaw Building, 5th Floor 105 Rochford Street PO Box 2000 Charlottetown, PE C1A 7N8","Shannon Burke, CA",,,6/7/13,6/7/13
Finance and Corporate Management,,pe/finance-and-corporate-management,,Health and Wellness,pe/health-and-wellness,,http://www.gov.pe.ca/health/facm-info/dg.inc.php3,Saskatchewan,SK,"Index of Departments, Disivions and Sections",http://www.gov.pe.ca,"PO Box 2000 105 Rochford Street, 4th Floor Shaw Building North Charlottetown, PE, C1A 7N8","Kevin Barnes, CA",,,6/7/13,6/7/13
Finance and Corporate Services,,pe/finance-and-corporate-services,,"Environment, Labour and Justice",pe/environment-labour-and-justice,,http://www.gov.pe.ca/jps/facs-info/dg.inc.php3,Saskatchewan,SK,"Index of Departments, Disivions and Sections",http://www.gov.pe.ca,"Jones Building, 4th Floor 11 Kent Street PO Box 2000 Charlottetown, PE C1A 7N8",Mary Kinsman,,,6/7/13,6/7/13
Finance and  Human Resources,,pe/finance-and-human-resources,,Transportation and Infrastructure,pe/transportation-and-infrastructure,,http://www.gov.pe.ca/tir/fahr-info/dg.inc.php3,Saskatchewan,SK,"Index of Departments, Disivions and Sections",http://www.gov.pe.ca,"2nd Floor, Jones Building 11 Kent Street Charlottetown, PE C1A 7N8","Wendy L MacDonald, CA",,,6/7/13,6/7/13
Finance and School Board Operations Division,,pe/finance-and-school-board-operations-division,,Education and Early Childhood Development,pe/education-and-early-childhood-development,,http://www.gov.pe.ca/education/aacs-info/dg.inc.php3,Saskatchewan,SK,"Index of Departments, Disivions and Sections",http://www.gov.pe.ca,"250 Water Street, Suite 101 Summerside, PE C1N 1B6",Terry Keefe,,,6/7/13,6/7/13
Finance,,pe/finance,,Innovation and Advanced Learning,pe/innovation-and-advanced-learning,,http://www.gov.pe.ca/ial/faa-info/dg.inc.php3,Saskatchewan,SK,"Index of Departments, Disivions and Sections",http://www.gov.pe.ca,"Shaw Building, 5th Floor 105 Rochford Street PO Box 2000 Charlottetown, PE C1A 7N8","Shannon Burke, CA",,,6/7/13,6/7/13
Finance,,pe/finance,,Tourism and Culture,pe/tourism-and-culture,,http://www.gov.pe.ca/tourism/plcc-info/dg.inc.php3,Saskatchewan,SK,"Index of Departments, Disivions and Sections",http://www.gov.pe.ca,"3 Garfield Street P.O. Box 967 Charlottetown, PE C1A 7M4",Brooke MacMillan,,,6/7/13,6/7/13
Financial Administration,,pe/financial-administration,,"Environment, Labour and Justice",pe/environment-labour-and-justice,,http://www.gov.pe.ca/jps/paa-info/dg.inc.php3,Saskatchewan,SK,"Index of Departments, Disivions and Sections",http://www.gov.pe.ca,"Fourth Floor,Shaw Building 105 Rochford Street PO Box 2000 Charlottetown, PE C1A 7N8","Kevin Barnes, CA",,,6/7/13,6/7/13
Financial Services & Audit,,pe/financial-services-audit,,Community Services and  Seniors,pe/community-services-and-seniors,,http://www.gov.pe.ca/sss/hsacs-info/dg.inc.php3,Saskatchewan,SK,"Index of Departments, Disivions and Sections",http://www.gov.pe.ca,"Second Floor, Jones Building 11 Kent Street PO Box 2000, Charlottetown, PE C1A 7N8",W. Lorne Clow,,,6/7/13,6/7/13
Financial Services,,pe/financial-services,,Health PEI,pe/health-pei,,http://www.healthpei.ca/fs-info/dg.inc.php3,Saskatchewan,SK,"Index of Departments, Disivions and Sections",http://www.gov.pe.ca,,Denise Lewis Fleming,,,6/7/13,6/7/13
Financial Services,,pe/financial-services,,Agriculture and Forestry,pe/agriculture-and-forestry,,http://www.gov.pe.ca/af/cafs-info/dg.inc.php3,Saskatchewan,SK,"Index of Departments, Disivions and Sections",http://www.gov.pe.ca,"Fifth Floor, Jones Building, 11 Kent Street, P.O. Box 2000, Charlottetown, PEI C1A 7N8",Jerry Gavin,,,6/7/13,6/7/13
Financial Services,,pe/financial-services,,Health and Wellness,pe/health-and-wellness,,http://www.gov.pe.ca/health/facm-info/dg.inc.php3,Saskatchewan,SK,"Index of Departments, Disivions and Sections",http://www.gov.pe.ca,"PO Box 2000 105 Rochford Street, 4th Floor Shaw Building North Charlottetown, PE, C1A 7N8","Kevin Barnes, CA",,,6/7/13,6/7/13
Financial System Administration,,pe/financial-system-administration,,"Finance, Energy  and Municipal Affairs",pe/finance-energy-and-municipal-affairs,,http://www.gov.pe.ca/finance/ootc-info/dg.inc.php3,Saskatchewan,SK,"Index of Departments, Disivions and Sections",http://www.gov.pe.ca,"Second Floor, Shaw Building 95 Rochford Street P.O. Box 2000 Charlottetown, PEI C1A 7N8","Doug Clow, CA",,,6/7/13,6/7/13
Firearms Office,,pe/firearms-office,,"Environment, Labour and Justice",pe/environment-labour-and-justice,,http://www.gov.pe.ca/jps/csajp-info/dg.inc.php3,Saskatchewan,SK,"Index of Departments, Disivions and Sections",http://www.gov.pe.ca,"Fourth Floor, Shaw Building 105 Rochford Street Charlottetown, PE C1A 7N8",Erin Mitchell,,,6/7/13,6/7/13
Fire Marshal's Office,,pe/fire-marshal-s-office,,"Environment, Labour and Justice",pe/environment-labour-and-justice,,http://www.gov.pe.ca/jps/csajp-info/dg.inc.php3,Saskatchewan,SK,"Index of Departments, Disivions and Sections",http://www.gov.pe.ca,"Fourth Floor, Shaw Building 105 Rochford Street Charlottetown, PE C1A 7N8",Erin Mitchell,,,6/7/13,6/7/13
Fiscal Management,,pe/fiscal-management,,"Finance, Energy  and Municipal Affairs",pe/finance-energy-and-municipal-affairs,,http://www.gov.pe.ca/finance/fm-info/dg.inc.php3,Saskatchewan,SK,"Index of Departments, Disivions and Sections",http://www.gov.pe.ca,"Third Floor, South Shaw Building 95 Rochford Street PO Box 2000 Charlottetown, PE C1A 7N8","Jim Miles, CA",,,6/7/13,6/7/13
"Fiscal Planning, Analysis & Audit",,pe/fiscal-planning-analysis-audit,,Health PEI,pe/health-pei,,http://www.healthpei.ca/fs-info/dg.inc.php3,Saskatchewan,SK,"Index of Departments, Disivions and Sections",http://www.gov.pe.ca,,Denise Lewis Fleming,,,6/7/13,6/7/13
Fish and Wildlife,,pe/fish-and-wildlife,,Agriculture and Forestry,pe/agriculture-and-forestry,,http://www.gov.pe.ca/af/ffaw-info/dg.inc.php3,Saskatchewan,SK,"Index of Departments, Disivions and Sections",http://www.gov.pe.ca,"J. Frank Gaudet Tree Nursery Box 2000 183 Upton Rd. Charlottetown C1A 7N8
Telephone: (902) 368 4700
Facsimile: (902) 368 471",Kate E MacQuarrie,,,6/7/13,6/7/13
Fisheries and Aquaculture,,pe/fisheries-and-aquaculture,,Innovation and Advanced Learning,pe/innovation-and-advanced-learning,,http://www.gov.pe.ca/ial/fp-info/dg.inc.php3,Saskatchewan,SK,"Index of Departments, Disivions and Sections",http://www.gov.pe.ca,"Commercial and Resource Lending 98 Fitzroy Street, 2nd Floor PO Box 1176 Charlottetown, Prince Edward Island C1A 1R7 Canada Developmental Lending 94 Euston Street, 2nd Floor PO Box 1176 Charlottetown, Prince Edward Island C1A 7M8","Jamie Aiken, CA",,,6/7/13,6/7/13
"Forests, Fish and Wildlife",,pe/forests-fish-and-wildlife,,Agriculture and Forestry,pe/agriculture-and-forestry,,http://www.gov.pe.ca/af/ffaw-info/dg.inc.php3,Saskatchewan,SK,"Index of Departments, Disivions and Sections",http://www.gov.pe.ca,"J. Frank Gaudet Tree Nursery Box 2000 183 Upton Rd. Charlottetown C1A 7N8
Telephone: (902) 368 4700
Facsimile: (902) 368 471",Kate E MacQuarrie,,,6/7/13,6/7/13
French Programs,,pe/french-programs,,Education and Early Childhood Development,pe/education-and-early-childhood-development,,http://www.gov.pe.ca/education/laecd-info/dg.inc.php3,Saskatchewan,SK,"Index of Departments, Disivions and Sections",http://www.gov.pe.ca,,Imelda Arsenault,,,6/7/13,6/7/13
"GED, Literacy and Essential Skills",,pe/ged-literacy-and-essential-skills,,Innovation and Advanced Learning,pe/innovation-and-advanced-learning,,http://www.gov.pe.ca/ial/psace-info/dg.inc.php3,Saskatchewan,SK,"Index of Departments, Disivions and Sections",http://www.gov.pe.ca,"Atlantic Technology Centre 90 University Avenue, Suite 212 Charlottetown, PE C1A 4K9",Susan A MacKenzie,,,6/7/13,6/7/13
Golf,,pe/golf,,Tourism and Culture,pe/tourism-and-culture,,http://www.gov.pe.ca/tourism/cs-info/dg.inc.php3,Saskatchewan,SK,"Index of Departments, Disivions and Sections",http://www.gov.pe.ca,"P.O. Box 2000 Charlottetown, PE C1A 7N8","Kevin Jenkins, CA",,,6/7/13,6/7/13
Green Park Shipbuilding Museum & Yeo House,,pe/green-park-shipbuilding-museum-yeo-house,,Tourism and Culture,pe/tourism-and-culture,,http://www.gov.pe.ca/tourism/mahf-info/dg.inc.php3,Saskatchewan,SK,"Index of Departments, Disivions and Sections",http://www.gov.pe.ca,Beaconsfield 2 Kent Street Charlottetown PEI C1A 1M6,Harry KiellyDr. David L Keenlyside,,,6/7/13,6/7/13
Health Information Management,,pe/health-information-management,,Health PEI,pe/health-pei,,http://www.healthpei.ca/him-info/dg.inc.php3,Saskatchewan,SK,"Index of Departments, Disivions and Sections",http://www.gov.pe.ca,,Liam Whitty,,,6/7/13,6/7/13
Health Information,,pe/health-information,,Health PEI,pe/health-pei,,http://www.healthpei.ca/him-info/dg.inc.php3,Saskatchewan,SK,"Index of Departments, Disivions and Sections",http://www.gov.pe.ca,,Liam Whitty,,,6/7/13,6/7/13
Health PEI,,pe/health-pei,,Health PEI,pe/health-pei,,http://www.healthpei.ca/dg.inc.php3,Saskatchewan,SK,"Index of Departments, Disivions and Sections",http://www.gov.pe.ca,"16 Garfield Street PO Box 2000 Charlottetown, PE C1A 7N8",Dr. Donna MurnaghanDr. Richard Wedge,,,6/7/13,6/7/13
Health Recruitment and Retention,,pe/health-recruitment-and-retention,,Health and Wellness,pe/health-and-wellness,,http://www.gov.pe.ca/health/hspad-info/dg.inc.php3,Saskatchewan,SK,"Index of Departments, Disivions and Sections",http://www.gov.pe.ca,"105 Rochford Street Shaw Bldg. 4th Floor Shaw North Charlottetown, PEI C1A 7N8","Kevin Barnes, CA",,,6/7/13,6/7/13
Health System Planning and Development,,pe/health-system-planning-and-development,,Health and Wellness,pe/health-and-wellness,,http://www.gov.pe.ca/health/hspad-info/dg.inc.php3,Saskatchewan,SK,"Index of Departments, Disivions and Sections",http://www.gov.pe.ca,"105 Rochford Street Shaw Bldg. 4th Floor Shaw North Charlottetown, PEI C1A 7N8","Kevin Barnes, CA",,,6/7/13,6/7/13
Healthy Living,,pe/healthy-living,,Health and Wellness,pe/health-and-wellness,,http://www.gov.pe.ca/health/srahl-info/dg.inc.php3,Saskatchewan,SK,"Index of Departments, Disivions and Sections",http://www.gov.pe.ca,"PO Box 2000 16 Fitzroy Street 3rd Floor, Sullivan Bldg. Charlottetown, PE, C1A 7N8",John Morrison,,,6/7/13,6/7/13
Highway Construction,,pe/highway-construction,,Transportation and Infrastructure,pe/transportation-and-infrastructure,,http://www.gov.pe.ca/tir/cp-info/dg.inc.php3,Saskatchewan,SK,"Index of Departments, Disivions and Sections",http://www.gov.pe.ca,"3rd Floor, Jones Building 11 Kent Street Charlottetown, PE C1A 7N8","Stephen J Yeo, P. Eng",,,6/7/13,6/7/13
Highway Maintenance,,pe/highway-maintenance,,Transportation and Infrastructure,pe/transportation-and-infrastructure,,http://www.gov.pe.ca/tir/hm-info/dg.inc.php3,Saskatchewan,SK,"Index of Departments, Disivions and Sections",http://www.gov.pe.ca,"Provincial Headquarters Park Street & Riverside Drive PO Box 2000 Charlottetown, PE C1A 7N8","Darren Chaisson, P. Eng",,,6/7/13,6/7/13
Highway Maintenance Operations,,pe/highway-maintenance-operations,,Transportation and Infrastructure,pe/transportation-and-infrastructure,,http://www.gov.pe.ca/tir/hm-info/dg.inc.php3,Saskatchewan,SK,"Index of Departments, Disivions and Sections",http://www.gov.pe.ca,"Provincial Headquarters Park Street & Riverside Drive PO Box 2000 Charlottetown, PE C1A 7N8","Darren Chaisson, P. Eng",,,6/7/13,6/7/13
Highway Safety,,pe/highway-safety,,Transportation and Infrastructure,pe/transportation-and-infrastructure,,http://www.gov.pe.ca/tir/hs-info/dg.inc.php3,Saskatchewan,SK,"Index of Departments, Disivions and Sections",http://www.gov.pe.ca,,John B. MacDonald,,,6/7/13,6/7/13
Highway Safety,,pe/highway-safety,,Transportation and Infrastructure,pe/transportation-and-infrastructure,,http://www.gov.pe.ca/tir/hs-info/dg.inc.php3,Saskatchewan,SK,"Index of Departments, Disivions and Sections",http://www.gov.pe.ca,,John B. MacDonald,,,6/7/13,6/7/13
"History, Exhibits and The Island Magazine",,pe/history-exhibits-and-the-island-magazine,,Tourism and Culture,pe/tourism-and-culture,,http://www.gov.pe.ca/tourism/mahf-info/dg.inc.php3,Saskatchewan,SK,"Index of Departments, Disivions and Sections",http://www.gov.pe.ca,Beaconsfield 2 Kent Street Charlottetown PEI C1A 1M6,Harry KiellyDr. David L Keenlyside,,,6/7/13,6/7/13
Home-Based & Long-Term Care,,pe/home-based-long-term-care,,Health PEI,pe/health-pei,,http://www.healthpei.ca/h&lc-info/dg.inc.php3,Saskatchewan,SK,"Index of Departments, Disivions and Sections",http://www.gov.pe.ca,,Cecil Villard,,,6/7/13,6/7/13
Home Care,,pe/home-care,,Health PEI,pe/health-pei,,http://www.healthpei.ca/h&lc-info/dg.inc.php3,Saskatchewan,SK,"Index of Departments, Disivions and Sections",http://www.gov.pe.ca,,Cecil Villard,,,6/7/13,6/7/13
Hospital Pharmacy,,pe/hospital-pharmacy,,Health PEI,pe/health-pei,,http://www.healthpei.ca/pcs-info/dg.inc.php3,Saskatchewan,SK,"Index of Departments, Disivions and Sections",http://www.gov.pe.ca,,Jamie MacDonald,,,6/7/13,6/7/13
Hospital Services,,pe/hospital-services,,Health PEI,pe/health-pei,,http://www.healthpei.ca/pch-info/dg.inc.php3,Saskatchewan,SK,"Index of Departments, Disivions and Sections",http://www.gov.pe.ca,,Arlene Gallant-Bernard,,,6/7/13,6/7/13
Hospital Services,,pe/hospital-services,,Health PEI,pe/health-pei,,http://www.healthpei.ca/qeh-info/dg.inc.php3,Saskatchewan,SK,"Index of Departments, Disivions and Sections",http://www.gov.pe.ca,,Rick Adams,,,6/7/13,6/7/13
Housing,,pe/housing,,Community Services and  Seniors,pe/community-services-and-seniors,,http://www.gov.pe.ca/sss/hsacs-info/dg.inc.php3,Saskatchewan,SK,"Index of Departments, Disivions and Sections",http://www.gov.pe.ca,"Second Floor, Jones Building 11 Kent Street PO Box 2000, Charlottetown, PE C1A 7N8",W. Lorne Clow,,,6/7/13,6/7/13
"Housing, Seniors and Corporate Support",,pe/housing-seniors-and-corporate-support,,Community Services and  Seniors,pe/community-services-and-seniors,,http://www.gov.pe.ca/sss/hsacs-info/dg.inc.php3,Saskatchewan,SK,"Index of Departments, Disivions and Sections",http://www.gov.pe.ca,"Second Floor, Jones Building 11 Kent Street PO Box 2000, Charlottetown, PE C1A 7N8",W. Lorne Clow,,,6/7/13,6/7/13
HR Management and Labour Relations,,pe/hr-management-and-labour-relations,,"Finance, Energy  and Municipal Affairs",pe/finance-energy-and-municipal-affairs,,http://www.gov.pe.ca/finance/psc-info/dg.inc.php3,Saskatchewan,SK,"Index of Departments, Disivions and Sections",http://www.gov.pe.ca,"First Floor Shaw Building North 105 Rochford Street P.O Box 2000 Charlottetown, PEI C1A 7N8",Andrew M Thompson,,,6/7/13,6/7/13
HR Management,,pe/hr-management,,"Finance, Energy  and Municipal Affairs",pe/finance-energy-and-municipal-affairs,,http://www.gov.pe.ca/finance/psc-info/dg.inc.php3,Saskatchewan,SK,"Index of Departments, Disivions and Sections",http://www.gov.pe.ca,"First Floor Shaw Building North 105 Rochford Street P.O Box 2000 Charlottetown, PEI C1A 7N8",Andrew M Thompson,,,6/7/13,6/7/13
HST Implementation Project,,pe/hst-implementation-project,,"Finance, Energy  and Municipal Affairs",pe/finance-energy-and-municipal-affairs,,http://www.gov.pe.ca/finance/tapr-info/dg.inc.php3,Saskatchewan,SK,"Index of Departments, Disivions and Sections",http://www.gov.pe.ca,"Shaw Building, 1st Floor 95 Rochford Street PO Box 2000 Charlottetown, PE C1A 7N8",Elizabeth (Beth) Gaudet,,,6/7/13,6/7/13
Human Resource Management,,pe/human-resource-management,,"Environment, Labour and Justice",pe/environment-labour-and-justice,,http://www.gov.pe.ca/jps/paa-info/dg.inc.php3,Saskatchewan,SK,"Index of Departments, Disivions and Sections",http://www.gov.pe.ca,"Fourth Floor,Shaw Building 105 Rochford Street PO Box 2000 Charlottetown, PE C1A 7N8","Kevin Barnes, CA",,,6/7/13,6/7/13
Human Resource Planning and Communication,,pe/human-resource-planning-and-communication,,"Finance, Energy  and Municipal Affairs",pe/finance-energy-and-municipal-affairs,,http://www.gov.pe.ca/finance/psc-info/dg.inc.php3,Saskatchewan,SK,"Index of Departments, Disivions and Sections",http://www.gov.pe.ca,"First Floor Shaw Building North 105 Rochford Street P.O Box 2000 Charlottetown, PEI C1A 7N8",Andrew M Thompson,,,6/7/13,6/7/13
Human Resource Services,,pe/human-resource-services,,Agriculture and Forestry,pe/agriculture-and-forestry,,http://www.gov.pe.ca/af/cafs-info/dg.inc.php3,Saskatchewan,SK,"Index of Departments, Disivions and Sections",http://www.gov.pe.ca,"Fifth Floor, Jones Building, 11 Kent Street, P.O. Box 2000, Charlottetown, PEI C1A 7N8",Jerry Gavin,,,6/7/13,6/7/13
Human Resources,,pe/human-resources,,Education and Early Childhood Development,pe/education-and-early-childhood-development,,http://www.gov.pe.ca/education/aacs-info/dg.inc.php3,Saskatchewan,SK,"Index of Departments, Disivions and Sections",http://www.gov.pe.ca,"250 Water Street, Suite 101 Summerside, PE C1N 1B6",Terry Keefe,,,6/7/13,6/7/13
Human Resources,,pe/human-resources,,Health and Wellness,pe/health-and-wellness,,http://www.gov.pe.ca/health/facm-info/dg.inc.php3,Saskatchewan,SK,"Index of Departments, Disivions and Sections",http://www.gov.pe.ca,"PO Box 2000 105 Rochford Street, 4th Floor Shaw Building North Charlottetown, PE, C1A 7N8","Kevin Barnes, CA",,,6/7/13,6/7/13
Human Resources,,pe/human-resources,,Health PEI,pe/health-pei,,http://www.healthpei.ca/cdai-info/dg.inc.php3,Saskatchewan,SK,"Index of Departments, Disivions and Sections",http://www.gov.pe.ca,,Pamela Trainor,,,6/7/13,6/7/13
Human Resources,,pe/human-resources,,Innovation and Advanced Learning,pe/innovation-and-advanced-learning,,http://www.gov.pe.ca/ial/faa-info/dg.inc.php3,Saskatchewan,SK,"Index of Departments, Disivions and Sections",http://www.gov.pe.ca,"Shaw Building, 5th Floor 105 Rochford Street PO Box 2000 Charlottetown, PE C1A 7N8","Shannon Burke, CA",,,6/7/13,6/7/13
Human Resources,,pe/human-resources,,Community Services and  Seniors,pe/community-services-and-seniors,,http://www.gov.pe.ca/sss/hsacs-info/dg.inc.php3,Saskatchewan,SK,"Index of Departments, Disivions and Sections",http://www.gov.pe.ca,"Second Floor, Jones Building 11 Kent Street PO Box 2000, Charlottetown, PE C1A 7N8",W. Lorne Clow,,,6/7/13,6/7/13
Human Resources,,pe/human-resources,,Tourism and Culture,pe/tourism-and-culture,,http://www.gov.pe.ca/tourism/plcc-info/dg.inc.php3,Saskatchewan,SK,"Index of Departments, Disivions and Sections",http://www.gov.pe.ca,"3 Garfield Street P.O. Box 967 Charlottetown, PE C1A 7M4",Brooke MacMillan,,,6/7/13,6/7/13
iEHR and eHealth Project Implementation,,pe/iehr-and-ehealth-project-implementation,,Health PEI,pe/health-pei,,http://www.healthpei.ca/him-info/dg.inc.php3,Saskatchewan,SK,"Index of Departments, Disivions and Sections",http://www.gov.pe.ca,,Liam Whitty,,,6/7/13,6/7/13
iEHR and eHealth Project Operational Support,,pe/iehr-and-ehealth-project-operational-support,,Health PEI,pe/health-pei,,http://www.healthpei.ca/him-info/dg.inc.php3,Saskatchewan,SK,"Index of Departments, Disivions and Sections",http://www.gov.pe.ca,,Liam Whitty,,,6/7/13,6/7/13
Industrial Relations,,pe/industrial-relations,,"Environment, Labour and Justice",pe/environment-labour-and-justice,,http://www.gov.pe.ca/jps/clafs-info/dg.inc.php3,Saskatchewan,SK,"Index of Departments, Disivions and Sections",http://www.gov.pe.ca,"Fourth Floor, Shaw Building 95 Rochford Street PO Box 2000 Charlottetown, PE C1A 7N8",Katharine Tummon,,,6/7/13,6/7/13
"Information Technology, Manufacturing and Processing",,pe/information-technology-manufacturing-and-processing,,Innovation and Advanced Learning,pe/innovation-and-advanced-learning,,http://www.gov.pe.ca/ial/fp-info/dg.inc.php3,Saskatchewan,SK,"Index of Departments, Disivions and Sections",http://www.gov.pe.ca,"Commercial and Resource Lending 98 Fitzroy Street, 2nd Floor PO Box 1176 Charlottetown, Prince Edward Island C1A 1R7 Canada Developmental Lending 94 Euston Street, 2nd Floor PO Box 1176 Charlottetown, Prince Edward Island C1A 7M8","Jamie Aiken, CA",,,6/7/13,6/7/13
Information Technology Shared Services,,pe/information-technology-shared-services,,"Finance, Energy  and Municipal Affairs",pe/finance-energy-and-municipal-affairs,,http://www.gov.pe.ca/finance/itss-info/dg.inc.php3,Saskatchewan,SK,"Index of Departments, Disivions and Sections",http://www.gov.pe.ca,"Sullivan Building, 5th floor PO Box 2000 Charlottetown PE C1A 7N8","Norman MacDonald, COO",,,6/7/13,6/7/13
"Information Technology, Software and Gaming",,pe/information-technology-software-and-gaming,,Innovation and Advanced Learning,pe/innovation-and-advanced-learning,,http://www.gov.pe.ca/ial/ip-info/dg.inc.php3,Saskatchewan,SK,"Index of Departments, Disivions and Sections",http://www.gov.pe.ca,"94 Euston Street PO Box 910 Charlottetown, PE C1A 7L9","Cheryl L. Paynter, CA",,,6/7/13,6/7/13
Infrastructure,,pe/infrastructure,,Transportation and Infrastructure,pe/transportation-and-infrastructure,,http://www.gov.pe.ca/tir/inf-info/dg.inc.php3,Saskatchewan,SK,"Index of Departments, Disivions and Sections",http://www.gov.pe.ca,"75 Fitzroy Street, Suite 303 PO Box 2000 Charlottetown PE C1A 7N8",Darlene Rhodenizer,,,6/7/13,6/7/13
Infrastructure Operations,,pe/infrastructure-operations,,"Finance, Energy  and Municipal Affairs",pe/finance-energy-and-municipal-affairs,,http://www.gov.pe.ca/finance/itss-info/dg.inc.php3,Saskatchewan,SK,"Index of Departments, Disivions and Sections",http://www.gov.pe.ca,"Sullivan Building, 5th floor PO Box 2000 Charlottetown PE C1A 7N8","Norman MacDonald, COO",,,6/7/13,6/7/13
Infrastructure Projects,,pe/infrastructure-projects,,"Finance, Energy  and Municipal Affairs",pe/finance-energy-and-municipal-affairs,,http://www.gov.pe.ca/finance/itss-info/dg.inc.php3,Saskatchewan,SK,"Index of Departments, Disivions and Sections",http://www.gov.pe.ca,"Sullivan Building, 5th floor PO Box 2000 Charlottetown PE C1A 7N8","Norman MacDonald, COO",,,6/7/13,6/7/13
Infrastructure Secretariat,,pe/infrastructure-secretariat,,Transportation and Infrastructure,pe/transportation-and-infrastructure,,http://www.gov.pe.ca/tir/pwap-info/dg.inc.php3,Saskatchewan,SK,"Index of Departments, Disivions and Sections",http://www.gov.pe.ca,"Third Floor, Jones Building 11 Kent Street Charlottetown, PE C1A 7N8","Alan Maynard, P. Eng",,,6/7/13,6/7/13
Inspection Services,,pe/inspection-services,,"Environment, Labour and Justice",pe/environment-labour-and-justice,,http://www.gov.pe.ca/jps/env-info/dg.inc.php3,Saskatchewan,SK,"Index of Departments, Disivions and Sections",http://www.gov.pe.ca,"Jones Building, 4th Floor 11 Kent Street PO Box 2000, Charlottetown, PE C1A 7N8","Jim Young, P.Eng.",,,6/7/13,6/7/13
Insurance and Real Estate,,pe/insurance-and-real-estate,,"Environment, Labour and Justice",pe/environment-labour-and-justice,,http://www.gov.pe.ca/jps/clafs-info/dg.inc.php3,Saskatchewan,SK,"Index of Departments, Disivions and Sections",http://www.gov.pe.ca,"Fourth Floor, Shaw Building 95 Rochford Street PO Box 2000 Charlottetown, PE C1A 7N8",Katharine Tummon,,,6/7/13,6/7/13
Intergovernmental Affairs Secretariat,,pe/intergovernmental-affairs-secretariat,,Executive Council Office,pe/executive-council-office,,http://www.gov.pe.ca/eco/iapa-info/dg.inc.php3,Saskatchewan,SK,"Index of Departments, Disivions and Sections",http://www.gov.pe.ca,5th Floor Centre Shaw Building PO Box 2000 Charlottetown PE C1A 7N8,Matt McGuire,,,6/7/13,6/7/13
Intergovernmental and Public Affairs,,pe/intergovernmental-and-public-affairs,,Executive Council Office,pe/executive-council-office,,http://www.gov.pe.ca/eco/iapa-info/dg.inc.php3,Saskatchewan,SK,"Index of Departments, Disivions and Sections",http://www.gov.pe.ca,5th Floor Centre Shaw Building PO Box 2000 Charlottetown PE C1A 7N8,Matt McGuire,,,6/7/13,6/7/13
Interministerial Women's Secretariat,,pe/interministerial-women-s-secretariat,,Community Services and  Seniors,pe/community-services-and-seniors,,http://www.gov.pe.ca/sss/iws-info/dg.inc.php3,Saskatchewan,SK,"Index of Departments, Disivions and Sections",http://www.gov.pe.ca,"2nd Floor Jones Building 11 Kent Street P.O. Box 2000 Charlottetown, PE C1A 7N8",Michelle Harris-Genge,,,6/7/13,6/7/13
Investigation and Enforcement,,pe/investigation-and-enforcement,,"Environment, Labour and Justice",pe/environment-labour-and-justice,,http://www.gov.pe.ca/jps/csajp-info/dg.inc.php3,Saskatchewan,SK,"Index of Departments, Disivions and Sections",http://www.gov.pe.ca,"Fourth Floor, Shaw Building 105 Rochford Street Charlottetown, PE C1A 7N8",Erin Mitchell,,,6/7/13,6/7/13
Investment Section,,pe/investment-section,,"Finance, Energy  and Municipal Affairs",pe/finance-energy-and-municipal-affairs,,http://www.gov.pe.ca/finance/ootc-info/dg.inc.php3,Saskatchewan,SK,"Index of Departments, Disivions and Sections",http://www.gov.pe.ca,"Second Floor, Shaw Building 95 Rochford Street P.O. Box 2000 Charlottetown, PEI C1A 7N8","Doug Clow, CA",,,6/7/13,6/7/13
Justice Resource Service,,pe/justice-resource-service,,"Environment, Labour and Justice",pe/environment-labour-and-justice,,http://www.gov.pe.ca/jps/csajp-info/dg.inc.php3,Saskatchewan,SK,"Index of Departments, Disivions and Sections",http://www.gov.pe.ca,"Fourth Floor, Shaw Building 105 Rochford Street Charlottetown, PE C1A 7N8",Erin Mitchell,,,6/7/13,6/7/13
Kings and Queens County,,pe/kings-and-queens-county,,Innovation and Advanced Learning,pe/innovation-and-advanced-learning,,http://www.gov.pe.ca/ial/ski-info/dg.inc.php3,Saskatchewan,SK,"Index of Departments, Disivions and Sections",http://www.gov.pe.ca,"Atlantic Technology Centre 90 University Avenue, Suite 212 Charlottetown, PE C1A 4K9",Birt MacKinnon,,,6/7/13,6/7/13
Labour and Industrial Relations,,pe/labour-and-industrial-relations,,"Environment, Labour and Justice",pe/environment-labour-and-justice,,http://www.gov.pe.ca/jps/clafs-info/dg.inc.php3,Saskatchewan,SK,"Index of Departments, Disivions and Sections",http://www.gov.pe.ca,"Fourth Floor, Shaw Building 95 Rochford Street PO Box 2000 Charlottetown, PE C1A 7N8",Katharine Tummon,,,6/7/13,6/7/13
Labour Relations Board,,pe/labour-relations-board,,"Environment, Labour and Justice",pe/environment-labour-and-justice,,http://www.gov.pe.ca/jps/clafs-info/dg.inc.php3,Saskatchewan,SK,"Index of Departments, Disivions and Sections",http://www.gov.pe.ca,"Fourth Floor, Shaw Building 95 Rochford Street PO Box 2000 Charlottetown, PE C1A 7N8",Katharine Tummon,,,6/7/13,6/7/13
Labour Relations,,pe/labour-relations,,"Finance, Energy  and Municipal Affairs",pe/finance-energy-and-municipal-affairs,,http://www.gov.pe.ca/finance/psc-info/dg.inc.php3,Saskatchewan,SK,"Index of Departments, Disivions and Sections",http://www.gov.pe.ca,"First Floor Shaw Building North 105 Rochford Street P.O Box 2000 Charlottetown, PEI C1A 7N8",Andrew M Thompson,,,6/7/13,6/7/13
Land and Environment,,pe/land-and-environment,,Transportation and Infrastructure,pe/transportation-and-infrastructure,,http://www.gov.pe.ca/tir/lae-info/dg.inc.php3,Saskatchewan,SK,"Index of Departments, Disivions and Sections",http://www.gov.pe.ca,"Third Floor, Jones Building 11 Kent Street PO Box 2000 Charlottetown, PE C1A 7N8","Brian F. Thompson, P. Eng",,,6/7/13,6/7/13
Land and Local Governance,,pe/land-and-local-governance,,"Finance, Energy  and Municipal Affairs",pe/finance-energy-and-municipal-affairs,,http://www.gov.pe.ca/finance/maapp-info/dg.inc.php3,Saskatchewan,SK,"Index of Departments, Disivions and Sections",http://www.gov.pe.ca,"3 Brighton Road PO Box 2000 Charlottetown, PE C1A 7N8",Albert MacDonald,,,6/7/13,6/7/13
Language Training Centre,,pe/language-training-centre,,"Finance, Energy  and Municipal Affairs",pe/finance-energy-and-municipal-affairs,,http://www.gov.pe.ca/finance/psc-info/dg.inc.php3,Saskatchewan,SK,"Index of Departments, Disivions and Sections",http://www.gov.pe.ca,"First Floor Shaw Building North 105 Rochford Street P.O Box 2000 Charlottetown, PEI C1A 7N8",Andrew M Thompson,,,6/7/13,6/7/13
Law Enforcement,,pe/law-enforcement,,"Environment, Labour and Justice",pe/environment-labour-and-justice,,http://www.gov.pe.ca/jps/lacs-info/dg.inc.php3,Saskatchewan,SK,"Index of Departments, Disivions and Sections",http://www.gov.pe.ca,"Fourth Floor,Shaw Building 95 Rochford Street PO Box 2000 Charlottetown, PEI C1A 7N8","Barrie L. Grandy, QC",,,6/7/13,6/7/13
Learning and Early Childhood Development,,pe/learning-and-early-childhood-development,,Education and Early Childhood Development,pe/education-and-early-childhood-development,,http://www.gov.pe.ca/education/laecd-info/dg.inc.php3,Saskatchewan,SK,"Index of Departments, Disivions and Sections",http://www.gov.pe.ca,,Imelda Arsenault,,,6/7/13,6/7/13
Legal Aid,,pe/legal-aid,,"Environment, Labour and Justice",pe/environment-labour-and-justice,,http://www.gov.pe.ca/jps/la-info/dg.inc.php3,Saskatchewan,SK,"Index of Departments, Disivions and Sections",http://www.gov.pe.ca,"40 Great George Street P.O. Box 2000 Charlottetown, P.E.I C1A 7N8","W. Kent Brown, Q.C.",,,6/7/13,6/7/13
Legal and Court Services,,pe/legal-and-court-services,,"Environment, Labour and Justice",pe/environment-labour-and-justice,,http://www.gov.pe.ca/jps/lacs-info/dg.inc.php3,Saskatchewan,SK,"Index of Departments, Disivions and Sections",http://www.gov.pe.ca,"Fourth Floor,Shaw Building 95 Rochford Street PO Box 2000 Charlottetown, PEI C1A 7N8","Barrie L. Grandy, QC",,,6/7/13,6/7/13
Legal Services Section,,pe/legal-services-section,,"Environment, Labour and Justice",pe/environment-labour-and-justice,,http://www.gov.pe.ca/jps/lacs-info/dg.inc.php3,Saskatchewan,SK,"Index of Departments, Disivions and Sections",http://www.gov.pe.ca,"Fourth Floor,Shaw Building 95 Rochford Street PO Box 2000 Charlottetown, PEI C1A 7N8","Barrie L. Grandy, QC",,,6/7/13,6/7/13
Legislative Counsel,,pe/legislative-counsel,,"Environment, Labour and Justice",pe/environment-labour-and-justice,,http://www.gov.pe.ca/jps/lacs-info/dg.inc.php3,Saskatchewan,SK,"Index of Departments, Disivions and Sections",http://www.gov.pe.ca,"Fourth Floor,Shaw Building 95 Rochford Street PO Box 2000 Charlottetown, PEI C1A 7N8","Barrie L. Grandy, QC",,,6/7/13,6/7/13
Libraries and Archives,,pe/libraries-and-archives,,Tourism and Culture,pe/tourism-and-culture,,http://www.gov.pe.ca/tourism/laa-info/dg.inc.php3,Saskatchewan,SK,"Index of Departments, Disivions and Sections",http://www.gov.pe.ca,"First Floor, Sullivan Building 16 Fitzroy Street P.O. Box 2000 Charlottetown, PEIC1A 7N8",Kathleen Eaton,,,6/7/13,6/7/13
Long-Term Care - East Prince,,pe/long-term-care-east-prince,,Health PEI,pe/health-pei,,http://www.healthpei.ca/h&lc-info/dg.inc.php3,Saskatchewan,SK,"Index of Departments, Disivions and Sections",http://www.gov.pe.ca,,Cecil Villard,,,6/7/13,6/7/13
Long-Term Care - East,,pe/long-term-care-east,,Health PEI,pe/health-pei,,http://www.healthpei.ca/h&lc-info/dg.inc.php3,Saskatchewan,SK,"Index of Departments, Disivions and Sections",http://www.gov.pe.ca,,Cecil Villard,,,6/7/13,6/7/13
Long-Term Care - Queens,,pe/long-term-care-queens,,Health PEI,pe/health-pei,,http://www.healthpei.ca/h&lc-info/dg.inc.php3,Saskatchewan,SK,"Index of Departments, Disivions and Sections",http://www.gov.pe.ca,,Cecil Villard,,,6/7/13,6/7/13
Long-Term Care - West Prince,,pe/long-term-care-west-prince,,Health PEI,pe/health-pei,,http://www.healthpei.ca/h&lc-info/dg.inc.php3,Saskatchewan,SK,"Index of Departments, Disivions and Sections",http://www.gov.pe.ca,,Cecil Villard,,,6/7/13,6/7/13
Maintenance Enforcement,,pe/maintenance-enforcement,,"Environment, Labour and Justice",pe/environment-labour-and-justice,,http://www.gov.pe.ca/jps/lacs-info/dg.inc.php3,Saskatchewan,SK,"Index of Departments, Disivions and Sections",http://www.gov.pe.ca,"Fourth Floor,Shaw Building 95 Rochford Street PO Box 2000 Charlottetown, PEI C1A 7N8","Barrie L. Grandy, QC",,,6/7/13,6/7/13
Marine Fisheries and Seafood Services,,pe/marine-fisheries-and-seafood-services,,"Fisheries, Aquaculture and Rural Development",pe/fisheries-aquaculture-and-rural-development,,http://www.gov.pe.ca/fa/mfass-info/dg.inc.php3,Saskatchewan,SK,"Index of Departments, Disivions and Sections",http://www.gov.pe.ca,"PO Box 1180 548 Main St Montague, PE C0A 1R0","",,,6/7/13,6/7/13
Marketing and Retail,,pe/marketing-and-retail,,Tourism and Culture,pe/tourism-and-culture,,http://www.gov.pe.ca/tourism/plcc-info/dg.inc.php3,Saskatchewan,SK,"Index of Departments, Disivions and Sections",http://www.gov.pe.ca,"3 Garfield Street P.O. Box 967 Charlottetown, PE C1A 7M4",Brooke MacMillan,,,6/7/13,6/7/13
"Marketing Communications, Sales and CRM",,pe/marketing-communications-sales-and-crm,,Tourism and Culture,pe/tourism-and-culture,,http://www.gov.pe.ca/tourism/mcsac-info/dg.inc.php3,Saskatchewan,SK,"Index of Departments, Disivions and Sections",http://www.gov.pe.ca,,Brenda Gallant,,,6/7/13,6/7/13
Marketing Council,,pe/marketing-council,,Agriculture and Forestry,pe/agriculture-and-forestry,,http://www.gov.pe.ca/af/ap&rd-info/dg.inc.php3,Saskatchewan,SK,"Index of Departments, Disivions and Sections",http://www.gov.pe.ca,"5th Floor, Jones Building 11 Kent Street Charlottetown, P.E.I. C1A 7N8",Shane Murphy,,,6/7/13,6/7/13
Materials Lab,,pe/materials-lab,,Transportation and Infrastructure,pe/transportation-and-infrastructure,,http://www.gov.pe.ca/tir/cp-info/dg.inc.php3,Saskatchewan,SK,"Index of Departments, Disivions and Sections",http://www.gov.pe.ca,"3rd Floor, Jones Building 11 Kent Street Charlottetown, PE C1A 7N8","Stephen J Yeo, P. Eng",,,6/7/13,6/7/13
Materials Management,,pe/materials-management,,Health PEI,pe/health-pei,,http://www.healthpei.ca/fs-info/dg.inc.php3,Saskatchewan,SK,"Index of Departments, Disivions and Sections",http://www.gov.pe.ca,,Denise Lewis Fleming,,,6/7/13,6/7/13
Mechanical Branch,,pe/mechanical-branch,,Transportation and Infrastructure,pe/transportation-and-infrastructure,,http://www.gov.pe.ca/tir/hm-info/dg.inc.php3,Saskatchewan,SK,"Index of Departments, Disivions and Sections",http://www.gov.pe.ca,"Provincial Headquarters Park Street & Riverside Drive PO Box 2000 Charlottetown, PE C1A 7N8","Darren Chaisson, P. Eng",,,6/7/13,6/7/13
Medical Affairs,,pe/medical-affairs,,Health PEI,pe/health-pei,,http://www.healthpei.ca/ma-info/dg.inc.php3,Saskatchewan,SK,"Index of Departments, Disivions and Sections",http://www.gov.pe.ca,,Dr. Ruth Sellers,,,6/7/13,6/7/13
Medical Services,,pe/medical-services,,Health PEI,pe/health-pei,,http://www.healthpei.ca/pch-info/dg.inc.php3,Saskatchewan,SK,"Index of Departments, Disivions and Sections",http://www.gov.pe.ca,,Arlene Gallant-Bernard,,,6/7/13,6/7/13
Medical Services,,pe/medical-services,,Health PEI,pe/health-pei,,http://www.healthpei.ca/qeh-info/dg.inc.php3,Saskatchewan,SK,"Index of Departments, Disivions and Sections",http://www.gov.pe.ca,,Rick Adams,,,6/7/13,6/7/13
Mental Health & Addictions,,pe/mental-health-addictions,,Health PEI,pe/health-pei,,http://www.healthpei.ca/chaphc-info/dg.inc.php3,Saskatchewan,SK,"Index of Departments, Disivions and Sections",http://www.gov.pe.ca,,Deborah Bradley,,,6/7/13,6/7/13
Microbiology Laboratory,,pe/microbiology-laboratory,,"Environment, Labour and Justice",pe/environment-labour-and-justice,,http://www.gov.pe.ca/jps/env-info/dg.inc.php3,Saskatchewan,SK,"Index of Departments, Disivions and Sections",http://www.gov.pe.ca,"Jones Building, 4th Floor 11 Kent Street PO Box 2000, Charlottetown, PE C1A 7N8","Jim Young, P.Eng.",,,6/7/13,6/7/13
Montague Location,,pe/montague-location,,"Environment, Labour and Justice",pe/environment-labour-and-justice,,http://www.gov.pe.ca/jps/cacs-info/dg.inc.php3,Saskatchewan,SK,"Index of Departments, Disivions and Sections",http://www.gov.pe.ca,"109 Water Street Summerside, PE C1N 1A8",John R Picketts,,,6/7/13,6/7/13
Montague Location,,pe/montague-location,,"Environment, Labour and Justice",pe/environment-labour-and-justice,,http://www.gov.pe.ca/jps/cacs-info/dg.inc.php3,Saskatchewan,SK,"Index of Departments, Disivions and Sections",http://www.gov.pe.ca,"109 Water Street Summerside, PE C1N 1A8",John R Picketts,,,6/7/13,6/7/13
Montague,,pe/montague,,Innovation and Advanced Learning,pe/innovation-and-advanced-learning,,http://www.gov.pe.ca/ial/ski-info/dg.inc.php3,Saskatchewan,SK,"Index of Departments, Disivions and Sections",http://www.gov.pe.ca,"Atlantic Technology Centre 90 University Avenue, Suite 212 Charlottetown, PE C1A 4K9",Birt MacKinnon,,,6/7/13,6/7/13
Municipal Affairs and Provincial Planning,,pe/municipal-affairs-and-provincial-planning,,"Finance, Energy  and Municipal Affairs",pe/finance-energy-and-municipal-affairs,,http://www.gov.pe.ca/finance/maapp-info/dg.inc.php3,Saskatchewan,SK,"Index of Departments, Disivions and Sections",http://www.gov.pe.ca,"3 Brighton Road PO Box 2000 Charlottetown, PE C1A 7N8",Albert MacDonald,,,6/7/13,6/7/13
Municipal Affairs,,pe/municipal-affairs,,"Finance, Energy  and Municipal Affairs",pe/finance-energy-and-municipal-affairs,,http://www.gov.pe.ca/finance/maapp-info/dg.inc.php3,Saskatchewan,SK,"Index of Departments, Disivions and Sections",http://www.gov.pe.ca,"3 Brighton Road PO Box 2000 Charlottetown, PE C1A 7N8",Albert MacDonald,,,6/7/13,6/7/13
Museum and Heritage Foundation,,pe/museum-and-heritage-foundation,,Tourism and Culture,pe/tourism-and-culture,,http://www.gov.pe.ca/tourism/mahf-info/dg.inc.php3,Saskatchewan,SK,"Index of Departments, Disivions and Sections",http://www.gov.pe.ca,Beaconsfield 2 Kent Street Charlottetown PEI C1A 1M6,Harry KiellyDr. David L Keenlyside,,,6/7/13,6/7/13
Nursing Services,,pe/nursing-services,,Health PEI,pe/health-pei,,http://www.healthpei.ca/pch-info/dg.inc.php3,Saskatchewan,SK,"Index of Departments, Disivions and Sections",http://www.gov.pe.ca,,Arlene Gallant-Bernard,,,6/7/13,6/7/13
Nursing Services,,pe/nursing-services,,Health PEI,pe/health-pei,,http://www.healthpei.ca/qeh-info/dg.inc.php3,Saskatchewan,SK,"Index of Departments, Disivions and Sections",http://www.gov.pe.ca,,Rick Adams,,,6/7/13,6/7/13
Occupational Health and Safety,,pe/occupational-health-and-safety,,"Finance, Energy  and Municipal Affairs",pe/finance-energy-and-municipal-affairs,,http://www.gov.pe.ca/finance/psc-info/dg.inc.php3,Saskatchewan,SK,"Index of Departments, Disivions and Sections",http://www.gov.pe.ca,"First Floor Shaw Building North 105 Rochford Street P.O Box 2000 Charlottetown, PEI C1A 7N8",Andrew M Thompson,,,6/7/13,6/7/13
Office of Energy Efficiency,,pe/office-of-energy-efficiency,,"Finance, Energy  and Municipal Affairs",pe/finance-energy-and-municipal-affairs,,http://www.gov.pe.ca/finance/eam-info/dg.inc.php3,Saskatchewan,SK,"Index of Departments, Disivions and Sections",http://www.gov.pe.ca,"4th Floor Jones Building P.O. Box 2000 Charlottetown, PE C1A 7N8",Wayne MacQuarrie,,,6/7/13,6/7/13
"Office of Immigration, Settlement and Population",,pe/office-of-immigration-settlement-and-population,,Innovation and Advanced Learning,pe/innovation-and-advanced-learning,,http://www.gov.pe.ca/ial/iidi-info/dg.inc.php3,Saskatchewan,SK,"Index of Departments, Disivions and Sections",http://www.gov.pe.ca,"94 Euston Street, 2nd Floor PO Box 1176 Charlottetown, Prince Edward Island C1A 7M8","Jamie Aiken, CA",,,6/7/13,6/7/13
Office of Public Safety,,pe/office-of-public-safety,,"Environment, Labour and Justice",pe/environment-labour-and-justice,,http://www.gov.pe.ca/jps/csajp-info/dg.inc.php3,Saskatchewan,SK,"Index of Departments, Disivions and Sections",http://www.gov.pe.ca,"Fourth Floor, Shaw Building 105 Rochford Street Charlottetown, PE C1A 7N8",Erin Mitchell,,,6/7/13,6/7/13
Office of the Comptroller,,pe/office-of-the-comptroller,,"Finance, Energy  and Municipal Affairs",pe/finance-energy-and-municipal-affairs,,http://www.gov.pe.ca/finance/ootc-info/dg.inc.php3,Saskatchewan,SK,"Index of Departments, Disivions and Sections",http://www.gov.pe.ca,"Second Floor, Shaw Building 95 Rochford Street P.O. Box 2000 Charlottetown, PEI C1A 7N8","Doug Clow, CA",,,6/7/13,6/7/13
Office of the Employer Advisor,,pe/office-of-the-employer-advisor,,"Environment, Labour and Justice",pe/environment-labour-and-justice,,http://www.gov.pe.ca/jps/clafs-info/dg.inc.php3,Saskatchewan,SK,"Index of Departments, Disivions and Sections",http://www.gov.pe.ca,"Fourth Floor, Shaw Building 95 Rochford Street PO Box 2000 Charlottetown, PE C1A 7N8",Katharine Tummon,,,6/7/13,6/7/13
Office of the Public Trustee and Public Guardian,,pe/office-of-the-public-trustee-and-public-guardian,,"Environment, Labour and Justice",pe/environment-labour-and-justice,,http://www.gov.pe.ca/jps/lacs-info/dg.inc.php3,Saskatchewan,SK,"Index of Departments, Disivions and Sections",http://www.gov.pe.ca,"Fourth Floor,Shaw Building 95 Rochford Street PO Box 2000 Charlottetown, PEI C1A 7N8","Barrie L. Grandy, QC",,,6/7/13,6/7/13
Office of the WCAT Coordinator,,pe/office-of-the-wcat-coordinator,,"Environment, Labour and Justice",pe/environment-labour-and-justice,,http://www.gov.pe.ca/jps/clafs-info/dg.inc.php3,Saskatchewan,SK,"Index of Departments, Disivions and Sections",http://www.gov.pe.ca,"Fourth Floor, Shaw Building 95 Rochford Street PO Box 2000 Charlottetown, PE C1A 7N8",Katharine Tummon,,,6/7/13,6/7/13
O'Leary Location,,pe/o-leary-location,,"Environment, Labour and Justice",pe/environment-labour-and-justice,,http://www.gov.pe.ca/jps/cacs-info/dg.inc.php3,Saskatchewan,SK,"Index of Departments, Disivions and Sections",http://www.gov.pe.ca,"109 Water Street Summerside, PE C1N 1A8",John R Picketts,,,6/7/13,6/7/13
O'Leary Location,,pe/o-leary-location,,"Environment, Labour and Justice",pe/environment-labour-and-justice,,http://www.gov.pe.ca/jps/cacs-info/dg.inc.php3,Saskatchewan,SK,"Index of Departments, Disivions and Sections",http://www.gov.pe.ca,"109 Water Street Summerside, PE C1N 1A8",John R Picketts,,,6/7/13,6/7/13
O'Leary,,pe/o-leary,,Innovation and Advanced Learning,pe/innovation-and-advanced-learning,,http://www.gov.pe.ca/ial/ski-info/dg.inc.php3,Saskatchewan,SK,"Index of Departments, Disivions and Sections",http://www.gov.pe.ca,"Atlantic Technology Centre 90 University Avenue, Suite 212 Charlottetown, PE C1A 4K9",Birt MacKinnon,,,6/7/13,6/7/13
Operations,,pe/operations,,Innovation and Advanced Learning,pe/innovation-and-advanced-learning,,http://www.gov.pe.ca/ial/iidi-info/dg.inc.php3,Saskatchewan,SK,"Index of Departments, Disivions and Sections",http://www.gov.pe.ca,"94 Euston Street, 2nd Floor PO Box 1176 Charlottetown, Prince Edward Island C1A 7M8","Jamie Aiken, CA",,,6/7/13,6/7/13
Organizational Development,,pe/organizational-development,,Health PEI,pe/health-pei,,http://www.healthpei.ca/cdai-info/dg.inc.php3,Saskatchewan,SK,"Index of Departments, Disivions and Sections",http://www.gov.pe.ca,,Pamela Trainor,,,6/7/13,6/7/13
Orwell Corner Historic Village,,pe/orwell-corner-historic-village,,Tourism and Culture,pe/tourism-and-culture,,http://www.gov.pe.ca/tourism/mahf-info/dg.inc.php3,Saskatchewan,SK,"Index of Departments, Disivions and Sections",http://www.gov.pe.ca,Beaconsfield 2 Kent Street Charlottetown PEI C1A 1M6,Harry KiellyDr. David L Keenlyside,,,6/7/13,6/7/13
Our Mandate,,pe/our-mandate,,"Fisheries, Aquaculture and Rural Development",pe/fisheries-aquaculture-and-rural-development,,http://www.gov.pe.ca/fa/eda-info/dg.inc.php3,Saskatchewan,SK,"Index of Departments, Disivions and Sections",http://www.gov.pe.ca,"P.O. Box 1180 548 Main St Montague, PE COA 1RO",Brian Schmeisser,,,6/7/13,6/7/13
Our Sites,,pe/our-sites,,Tourism and Culture,pe/tourism-and-culture,,http://www.gov.pe.ca/tourism/mahf-info/dg.inc.php3,Saskatchewan,SK,"Index of Departments, Disivions and Sections",http://www.gov.pe.ca,Beaconsfield 2 Kent Street Charlottetown PEI C1A 1M6,Harry KiellyDr. David L Keenlyside,,,6/7/13,6/7/13
Parent Education Program,,pe/parent-education-program,,"Environment, Labour and Justice",pe/environment-labour-and-justice,,http://www.gov.pe.ca/jps/lacs-info/dg.inc.php3,Saskatchewan,SK,"Index of Departments, Disivions and Sections",http://www.gov.pe.ca,"Fourth Floor,Shaw Building 95 Rochford Street PO Box 2000 Charlottetown, PEI C1A 7N8","Barrie L. Grandy, QC",,,6/7/13,6/7/13
Passport to Employment Program,,pe/passport-to-employment-program,,Innovation and Advanced Learning,pe/innovation-and-advanced-learning,,http://www.gov.pe.ca/ial/ski-info/dg.inc.php3,Saskatchewan,SK,"Index of Departments, Disivions and Sections",http://www.gov.pe.ca,"Atlantic Technology Centre 90 University Avenue, Suite 212 Charlottetown, PE C1A 4K9",Birt MacKinnon,,,6/7/13,6/7/13
PEI Agricultural Insurance Corporation,,pe/pei-agricultural-insurance-corporation,,Agriculture and Forestry,pe/agriculture-and-forestry,,http://www.gov.pe.ca/af/cafs-info/dg.inc.php3,Saskatchewan,SK,"Index of Departments, Disivions and Sections",http://www.gov.pe.ca,"Fifth Floor, Jones Building, 11 Kent Street, P.O. Box 2000, Charlottetown, PEI C1A 7N8",Jerry Gavin,,,6/7/13,6/7/13
P.E.I. Analytical Laboratories,,pe/p-e-i-analytical-laboratories,,Agriculture and Forestry,pe/agriculture-and-forestry,,http://www.gov.pe.ca/af/pal-info/dg.inc.php3,Saskatchewan,SK,"Index of Departments, Disivions and Sections",http://www.gov.pe.ca,"23 Innovation Way Charlottetown, PE C1E OB7",Tracy Wood,,,6/7/13,6/7/13
PEI Analytical Laboratories,,pe/pei-analytical-laboratories,,"Environment, Labour and Justice",pe/environment-labour-and-justice,,http://www.gov.pe.ca/jps/env-info/dg.inc.php3,Saskatchewan,SK,"Index of Departments, Disivions and Sections",http://www.gov.pe.ca,"Jones Building, 4th Floor 11 Kent Street PO Box 2000, Charlottetown, PE C1A 7N8","Jim Young, P.Eng.",,,6/7/13,6/7/13
PEI Court of Appeal,,pe/pei-court-of-appeal,,"Environment, Labour and Justice",pe/environment-labour-and-justice,,http://www.gov.pe.ca/jps/lacs-info/dg.inc.php3,Saskatchewan,SK,"Index of Departments, Disivions and Sections",http://www.gov.pe.ca,"Fourth Floor,Shaw Building 95 Rochford Street PO Box 2000 Charlottetown, PEI C1A 7N8","Barrie L. Grandy, QC",,,6/7/13,6/7/13
PEI Youth Centre,,pe/pei-youth-centre,,"Environment, Labour and Justice",pe/environment-labour-and-justice,,http://www.gov.pe.ca/jps/cacs-info/dg.inc.php3,Saskatchewan,SK,"Index of Departments, Disivions and Sections",http://www.gov.pe.ca,"109 Water Street Summerside, PE C1N 1A8",John R Picketts,,,6/7/13,6/7/13
Pensions and Benefits,,pe/pensions-and-benefits,,"Finance, Energy  and Municipal Affairs",pe/finance-energy-and-municipal-affairs,,http://www.gov.pe.ca/finance/fm-info/dg.inc.php3,Saskatchewan,SK,"Index of Departments, Disivions and Sections",http://www.gov.pe.ca,"Third Floor, South Shaw Building 95 Rochford Street PO Box 2000 Charlottetown, PE C1A 7N8","Jim Miles, CA",,,6/7/13,6/7/13
Physician Services,,pe/physician-services,,Health PEI,pe/health-pei,,http://www.healthpei.ca/ma-info/dg.inc.php3,Saskatchewan,SK,"Index of Departments, Disivions and Sections",http://www.gov.pe.ca,,Dr. Ruth Sellers,,,6/7/13,6/7/13
Plant Health Diagnostic Laboratory,,pe/plant-health-diagnostic-laboratory,,Agriculture and Forestry,pe/agriculture-and-forestry,,http://www.gov.pe.ca/af/pal-info/dg.inc.php3,Saskatchewan,SK,"Index of Departments, Disivions and Sections",http://www.gov.pe.ca,"23 Innovation Way Charlottetown, PE C1E OB7",Tracy Wood,,,6/7/13,6/7/13
Policing Services,,pe/policing-services,,"Environment, Labour and Justice",pe/environment-labour-and-justice,,http://www.gov.pe.ca/jps/csajp-info/dg.inc.php3,Saskatchewan,SK,"Index of Departments, Disivions and Sections",http://www.gov.pe.ca,"Fourth Floor, Shaw Building 105 Rochford Street Charlottetown, PE C1A 7N8",Erin Mitchell,,,6/7/13,6/7/13
Policy and Administration,,pe/policy-and-administration,,"Environment, Labour and Justice",pe/environment-labour-and-justice,,http://www.gov.pe.ca/jps/paa-info/dg.inc.php3,Saskatchewan,SK,"Index of Departments, Disivions and Sections",http://www.gov.pe.ca,"Fourth Floor,Shaw Building 105 Rochford Street PO Box 2000 Charlottetown, PE C1A 7N8","Kevin Barnes, CA",,,6/7/13,6/7/13
Policy and Planning,,pe/policy-and-planning,,Transportation and Infrastructure,pe/transportation-and-infrastructure,,http://www.gov.pe.ca/tir/pwap-info/dg.inc.php3,Saskatchewan,SK,"Index of Departments, Disivions and Sections",http://www.gov.pe.ca,"Third Floor, Jones Building 11 Kent Street Charlottetown, PE C1A 7N8","Alan Maynard, P. Eng",,,6/7/13,6/7/13
Policy Board Secretariat,,pe/policy-board-secretariat,,Executive Council Office,pe/executive-council-office,,http://www.gov.pe.ca/eco/pbs-info/dg.inc.php3,Saskatchewan,SK,"Index of Departments, Disivions and Sections",http://www.gov.pe.ca,"5th Floor Centre Shaw Building P.O. Box 2000 Charlottetown, PEI C1A 7N8",Wendy MacDonaldJanice PettitDan Campbell,,,6/7/13,6/7/13
"Policy, Planning and FPT Relations Section",,pe/policy-planning-and-fpt-relations-section,,Agriculture and Forestry,pe/agriculture-and-forestry,,http://www.gov.pe.ca/af/ap&rd-info/dg.inc.php3,Saskatchewan,SK,"Index of Departments, Disivions and Sections",http://www.gov.pe.ca,"5th Floor, Jones Building 11 Kent Street Charlottetown, P.E.I. C1A 7N8",Shane Murphy,,,6/7/13,6/7/13
Post Secondary and Continuing Education,,pe/post-secondary-and-continuing-education,,Innovation and Advanced Learning,pe/innovation-and-advanced-learning,,http://www.gov.pe.ca/ial/psace-info/dg.inc.php3,Saskatchewan,SK,"Index of Departments, Disivions and Sections",http://www.gov.pe.ca,"Atlantic Technology Centre 90 University Avenue, Suite 212 Charlottetown, PE C1A 4K9",Susan A MacKenzie,,,6/7/13,6/7/13
Premier's Action Committee on Family Violence Prevention,,pe/premier-s-action-committee-on-family-violence-prevention,,Community Services and  Seniors,pe/community-services-and-seniors,,http://www.gov.pe.ca/sss/cafs-info/dg.inc.php3,Saskatchewan,SK,"Index of Departments, Disivions and Sections",http://www.gov.pe.ca,,Rona Smith,,,6/7/13,6/7/13
Primary Care Networks & Chronic Disease Prevention/Management,,pe/primary-care-networks-chronic-disease-prevention-management,,Health PEI,pe/health-pei,,http://www.healthpei.ca/chaphc-info/dg.inc.php3,Saskatchewan,SK,"Index of Departments, Disivions and Sections",http://www.gov.pe.ca,,Deborah Bradley,,,6/7/13,6/7/13
Prince Correctional Centre,,pe/prince-correctional-centre,,"Environment, Labour and Justice",pe/environment-labour-and-justice,,http://www.gov.pe.ca/jps/cacs-info/dg.inc.php3,Saskatchewan,SK,"Index of Departments, Disivions and Sections",http://www.gov.pe.ca,"109 Water Street Summerside, PE C1N 1A8",John R Picketts,,,6/7/13,6/7/13
Prince County Hospital,,pe/prince-county-hospital,,Health PEI,pe/health-pei,,http://www.healthpei.ca/pch-info/dg.inc.php3,Saskatchewan,SK,"Index of Departments, Disivions and Sections",http://www.gov.pe.ca,,Arlene Gallant-Bernard,,,6/7/13,6/7/13
Prince County,,pe/prince-county,,Innovation and Advanced Learning,pe/innovation-and-advanced-learning,,http://www.gov.pe.ca/ial/ski-info/dg.inc.php3,Saskatchewan,SK,"Index of Departments, Disivions and Sections",http://www.gov.pe.ca,"Atlantic Technology Centre 90 University Avenue, Suite 212 Charlottetown, PE C1A 4K9",Birt MacKinnon,,,6/7/13,6/7/13
Privacy and Information,,pe/privacy-and-information,,Health PEI,pe/health-pei,,http://www.healthpei.ca/him-info/dg.inc.php3,Saskatchewan,SK,"Index of Departments, Disivions and Sections",http://www.gov.pe.ca,,Liam Whitty,,,6/7/13,6/7/13
Private Forest,,pe/private-forest,,Agriculture and Forestry,pe/agriculture-and-forestry,,http://www.gov.pe.ca/af/ffaw-info/dg.inc.php3,Saskatchewan,SK,"Index of Departments, Disivions and Sections",http://www.gov.pe.ca,"J. Frank Gaudet Tree Nursery Box 2000 183 Upton Rd. Charlottetown C1A 7N8
Telephone: (902) 368 4700
Facsimile: (902) 368 471",Kate E MacQuarrie,,,6/7/13,6/7/13
Private Training Schools,,pe/private-training-schools,,Innovation and Advanced Learning,pe/innovation-and-advanced-learning,,http://www.gov.pe.ca/ial/psace-info/dg.inc.php3,Saskatchewan,SK,"Index of Departments, Disivions and Sections",http://www.gov.pe.ca,"Atlantic Technology Centre 90 University Avenue, Suite 212 Charlottetown, PE C1A 4K9",Susan A MacKenzie,,,6/7/13,6/7/13
Probation Services,,pe/probation-services,,"Environment, Labour and Justice",pe/environment-labour-and-justice,,http://www.gov.pe.ca/jps/cacs-info/dg.inc.php3,Saskatchewan,SK,"Index of Departments, Disivions and Sections",http://www.gov.pe.ca,"109 Water Street Summerside, PE C1N 1A8",John R Picketts,,,6/7/13,6/7/13
Procurement,,pe/procurement,,"Finance, Energy  and Municipal Affairs",pe/finance-energy-and-municipal-affairs,,http://www.gov.pe.ca/finance/ootc-info/dg.inc.php3,Saskatchewan,SK,"Index of Departments, Disivions and Sections",http://www.gov.pe.ca,"Second Floor, Shaw Building 95 Rochford Street P.O. Box 2000 Charlottetown, PEI C1A 7N8","Doug Clow, CA",,,6/7/13,6/7/13
"Product Development, Investment and Regulatory Affairs Unit",,pe/product-development-investment-and-regulatory-affairs-unit,,Tourism and Culture,pe/tourism-and-culture,,http://www.gov.pe.ca/tourism/se&ii-info/dg.inc.php3,Saskatchewan,SK,"Index of Departments, Disivions and Sections",http://www.gov.pe.ca,,Chris K. Jones,,,6/7/13,6/7/13
Production Development,,pe/production-development,,Agriculture and Forestry,pe/agriculture-and-forestry,,http://www.gov.pe.ca/af/ffaw-info/dg.inc.php3,Saskatchewan,SK,"Index of Departments, Disivions and Sections",http://www.gov.pe.ca,"J. Frank Gaudet Tree Nursery Box 2000 183 Upton Rd. Charlottetown C1A 7N8
Telephone: (902) 368 4700
Facsimile: (902) 368 471",Kate E MacQuarrie,,,6/7/13,6/7/13
Program Evaluation and Student Assessment,,pe/program-evaluation-and-student-assessment,,Education and Early Childhood Development,pe/education-and-early-childhood-development,,http://www.gov.pe.ca/education/aacs-info/dg.inc.php3,Saskatchewan,SK,"Index of Departments, Disivions and Sections",http://www.gov.pe.ca,"250 Water Street, Suite 101 Summerside, PE C1N 1B6",Terry Keefe,,,6/7/13,6/7/13
Program Research and Policy,,pe/program-research-and-policy,,Innovation and Advanced Learning,pe/innovation-and-advanced-learning,,http://www.gov.pe.ca/ial/ip-info/dg.inc.php3,Saskatchewan,SK,"Index of Departments, Disivions and Sections",http://www.gov.pe.ca,"94 Euston Street PO Box 910 Charlottetown, PE C1A 7L9","Cheryl L. Paynter, CA",,,6/7/13,6/7/13
Project Management Office,,pe/project-management-office,,"Finance, Energy  and Municipal Affairs",pe/finance-energy-and-municipal-affairs,,http://www.gov.pe.ca/finance/itss-info/dg.inc.php3,Saskatchewan,SK,"Index of Departments, Disivions and Sections",http://www.gov.pe.ca,"Sullivan Building, 5th floor PO Box 2000 Charlottetown PE C1A 7N8","Norman MacDonald, COO",,,6/7/13,6/7/13
Properties,,pe/properties,,Transportation and Infrastructure,pe/transportation-and-infrastructure,,http://www.gov.pe.ca/tir/lae-info/dg.inc.php3,Saskatchewan,SK,"Index of Departments, Disivions and Sections",http://www.gov.pe.ca,"Third Floor, Jones Building 11 Kent Street PO Box 2000 Charlottetown, PE C1A 7N8","Brian F. Thompson, P. Eng",,,6/7/13,6/7/13
Prospecting and Innovation Program,,pe/prospecting-and-innovation-program,,Innovation and Advanced Learning,pe/innovation-and-advanced-learning,,http://www.gov.pe.ca/ial/ip-info/dg.inc.php3,Saskatchewan,SK,"Index of Departments, Disivions and Sections",http://www.gov.pe.ca,"94 Euston Street PO Box 910 Charlottetown, PE C1A 7L9","Cheryl L. Paynter, CA",,,6/7/13,6/7/13
Protected Areas and Biodiversity Conservation,,pe/protected-areas-and-biodiversity-conservation,,Agriculture and Forestry,pe/agriculture-and-forestry,,http://www.gov.pe.ca/af/ffaw-info/dg.inc.php3,Saskatchewan,SK,"Index of Departments, Disivions and Sections",http://www.gov.pe.ca,"J. Frank Gaudet Tree Nursery Box 2000 183 Upton Rd. Charlottetown C1A 7N8
Telephone: (902) 368 4700
Facsimile: (902) 368 471",Kate E MacQuarrie,,,6/7/13,6/7/13
Protocol Office,,pe/protocol-office,,Executive Council Office,pe/executive-council-office,,http://www.gov.pe.ca/eco/iapa-info/dg.inc.php3,Saskatchewan,SK,"Index of Departments, Disivions and Sections",http://www.gov.pe.ca,5th Floor Centre Shaw Building PO Box 2000 Charlottetown PE C1A 7N8,Matt McGuire,,,6/7/13,6/7/13
Provincial Clinical Services,,pe/provincial-clinical-services,,Health PEI,pe/health-pei,,http://www.healthpei.ca/pcs-info/dg.inc.php3,Saskatchewan,SK,"Index of Departments, Disivions and Sections",http://www.gov.pe.ca,,Jamie MacDonald,,,6/7/13,6/7/13
Provincial Correctional Centre,,pe/provincial-correctional-centre,,"Environment, Labour and Justice",pe/environment-labour-and-justice,,http://www.gov.pe.ca/jps/cacs-info/dg.inc.php3,Saskatchewan,SK,"Index of Departments, Disivions and Sections",http://www.gov.pe.ca,"109 Water Street Summerside, PE C1N 1A8",John R Picketts,,,6/7/13,6/7/13
Provincial Court,,pe/provincial-court,,"Environment, Labour and Justice",pe/environment-labour-and-justice,,http://www.gov.pe.ca/jps/lacs-info/dg.inc.php3,Saskatchewan,SK,"Index of Departments, Disivions and Sections",http://www.gov.pe.ca,"Fourth Floor,Shaw Building 95 Rochford Street PO Box 2000 Charlottetown, PEI C1A 7N8","Barrie L. Grandy, QC",,,6/7/13,6/7/13
Provincial Diagnostic Imaging Services,,pe/provincial-diagnostic-imaging-services,,Health PEI,pe/health-pei,,http://www.healthpei.ca/pcs-info/dg.inc.php3,Saskatchewan,SK,"Index of Departments, Disivions and Sections",http://www.gov.pe.ca,,Jamie MacDonald,,,6/7/13,6/7/13
Provincial Forest,,pe/provincial-forest,,Agriculture and Forestry,pe/agriculture-and-forestry,,http://www.gov.pe.ca/af/ffaw-info/dg.inc.php3,Saskatchewan,SK,"Index of Departments, Disivions and Sections",http://www.gov.pe.ca,"J. Frank Gaudet Tree Nursery Box 2000 183 Upton Rd. Charlottetown C1A 7N8
Telephone: (902) 368 4700
Facsimile: (902) 368 471",Kate E MacQuarrie,,,6/7/13,6/7/13
Provincial Headquarters,,pe/provincial-headquarters,,Transportation and Infrastructure,pe/transportation-and-infrastructure,,http://www.gov.pe.ca/tir/hm-info/dg.inc.php3,Saskatchewan,SK,"Index of Departments, Disivions and Sections",http://www.gov.pe.ca,"Provincial Headquarters Park Street & Riverside Drive PO Box 2000 Charlottetown, PE C1A 7N8","Darren Chaisson, P. Eng",,,6/7/13,6/7/13
Provincial Housing,,pe/provincial-housing,,Community Services and  Seniors,pe/community-services-and-seniors,,http://www.gov.pe.ca/sss/hsacs-info/dg.inc.php3,Saskatchewan,SK,"Index of Departments, Disivions and Sections",http://www.gov.pe.ca,"Second Floor, Jones Building 11 Kent Street PO Box 2000, Charlottetown, PE C1A 7N8",W. Lorne Clow,,,6/7/13,6/7/13
Provincial Laboratory Services,,pe/provincial-laboratory-services,,Health PEI,pe/health-pei,,http://www.healthpei.ca/pcs-info/dg.inc.php3,Saskatchewan,SK,"Index of Departments, Disivions and Sections",http://www.gov.pe.ca,,Jamie MacDonald,,,6/7/13,6/7/13
Provincial Parks,,pe/provincial-parks,,Tourism and Culture,pe/tourism-and-culture,,http://www.gov.pe.ca/tourism/cs-info/dg.inc.php3,Saskatchewan,SK,"Index of Departments, Disivions and Sections",http://www.gov.pe.ca,"P.O. Box 2000 Charlottetown, PE C1A 7N8","Kevin Jenkins, CA",,,6/7/13,6/7/13
Provincial Pharmacare Program,,pe/provincial-pharmacare-program,,Health PEI,pe/health-pei,,http://www.healthpei.ca/pcs-info/dg.inc.php3,Saskatchewan,SK,"Index of Departments, Disivions and Sections",http://www.gov.pe.ca,,Jamie MacDonald,,,6/7/13,6/7/13
Provincial Pharmacy Services,,pe/provincial-pharmacy-services,,Health PEI,pe/health-pei,,http://www.healthpei.ca/pcs-info/dg.inc.php3,Saskatchewan,SK,"Index of Departments, Disivions and Sections",http://www.gov.pe.ca,,Jamie MacDonald,,,6/7/13,6/7/13
Provincial Planning Branch,,pe/provincial-planning-branch,,"Finance, Energy  and Municipal Affairs",pe/finance-energy-and-municipal-affairs,,http://www.gov.pe.ca/finance/maapp-info/dg.inc.php3,Saskatchewan,SK,"Index of Departments, Disivions and Sections",http://www.gov.pe.ca,"3 Brighton Road PO Box 2000 Charlottetown, PE C1A 7N8",Albert MacDonald,,,6/7/13,6/7/13
Public Archives and Records Office,,pe/public-archives-and-records-office,,Tourism and Culture,pe/tourism-and-culture,,http://www.gov.pe.ca/tourism/laa-info/dg.inc.php3,Saskatchewan,SK,"Index of Departments, Disivions and Sections",http://www.gov.pe.ca,"First Floor, Sullivan Building 16 Fitzroy Street P.O. Box 2000 Charlottetown, PEIC1A 7N8",Kathleen Eaton,,,6/7/13,6/7/13
Public Health Programs,,pe/public-health-programs,,Health PEI,pe/health-pei,,http://www.healthpei.ca/chaphc-info/dg.inc.php3,Saskatchewan,SK,"Index of Departments, Disivions and Sections",http://www.gov.pe.ca,,Deborah Bradley,,,6/7/13,6/7/13
Public Library Service,,pe/public-library-service,,Tourism and Culture,pe/tourism-and-culture,,http://www.gov.pe.ca/tourism/laa-info/dg.inc.php3,Saskatchewan,SK,"Index of Departments, Disivions and Sections",http://www.gov.pe.ca,"First Floor, Sullivan Building 16 Fitzroy Street P.O. Box 2000 Charlottetown, PEIC1A 7N8",Kathleen Eaton,,,6/7/13,6/7/13
Public Works and Planning,,pe/public-works-and-planning,,Transportation and Infrastructure,pe/transportation-and-infrastructure,,http://www.gov.pe.ca/tir/pwap-info/dg.inc.php3,Saskatchewan,SK,"Index of Departments, Disivions and Sections",http://www.gov.pe.ca,"Third Floor, Jones Building 11 Kent Street Charlottetown, PE C1A 7N8","Alan Maynard, P. Eng",,,6/7/13,6/7/13
Purchasing and Distribution,,pe/purchasing-and-distribution,,Tourism and Culture,pe/tourism-and-culture,,http://www.gov.pe.ca/tourism/plcc-info/dg.inc.php3,Saskatchewan,SK,"Index of Departments, Disivions and Sections",http://www.gov.pe.ca,"3 Garfield Street P.O. Box 967 Charlottetown, PE C1A 7M4",Brooke MacMillan,,,6/7/13,6/7/13
Quality and Access Management,,pe/quality-and-access-management,,Health PEI,pe/health-pei,,http://www.healthpei.ca/cdai-info/dg.inc.php3,Saskatchewan,SK,"Index of Departments, Disivions and Sections",http://www.gov.pe.ca,,Pamela Trainor,,,6/7/13,6/7/13
Queen Elizabeth Hospital,,pe/queen-elizabeth-hospital,,Health PEI,pe/health-pei,,http://www.healthpei.ca/qeh-info/dg.inc.php3,Saskatchewan,SK,"Index of Departments, Disivions and Sections",http://www.gov.pe.ca,,Rick Adams,,,6/7/13,6/7/13
"Queen's Printer, Document Publishing Centre and PEI Mail",,pe/queen-s-printer-document-publishing-centre-and-pei-mail,,Executive Council Office,pe/executive-council-office,,http://www.gov.pe.ca/eco/cp-info/dg.inc.php3,Saskatchewan,SK,"Index of Departments, Disivions and Sections",http://www.gov.pe.ca,"Telephone: (902) 368-4000
Tollfree: 1 800 236",Sheri Coles,,,6/7/13,6/7/13
Real Property Services,,pe/real-property-services,,"Finance, Energy  and Municipal Affairs",pe/finance-energy-and-municipal-affairs,,http://www.gov.pe.ca/finance/tapr-info/dg.inc.php3,Saskatchewan,SK,"Index of Departments, Disivions and Sections",http://www.gov.pe.ca,"Shaw Building, 1st Floor 95 Rochford Street PO Box 2000 Charlottetown, PE C1A 7N8",Elizabeth (Beth) Gaudet,,,6/7/13,6/7/13
Registrar,,pe/registrar,,Education and Early Childhood Development,pe/education-and-early-childhood-development,,http://www.gov.pe.ca/education/aacs-info/dg.inc.php3,Saskatchewan,SK,"Index of Departments, Disivions and Sections",http://www.gov.pe.ca,"250 Water Street, Suite 101 Summerside, PE C1N 1B6",Terry Keefe,,,6/7/13,6/7/13
Research and Corporate Services,,pe/research-and-corporate-services,,Education and Early Childhood Development,pe/education-and-early-childhood-development,,http://www.gov.pe.ca/education/aacs-info/dg.inc.php3,Saskatchewan,SK,"Index of Departments, Disivions and Sections",http://www.gov.pe.ca,"250 Water Street, Suite 101 Summerside, PE C1N 1B6",Terry Keefe,,,6/7/13,6/7/13
Resource Inventory and Modelling,,pe/resource-inventory-and-modelling,,Agriculture and Forestry,pe/agriculture-and-forestry,,http://www.gov.pe.ca/af/ffaw-info/dg.inc.php3,Saskatchewan,SK,"Index of Departments, Disivions and Sections",http://www.gov.pe.ca,"J. Frank Gaudet Tree Nursery Box 2000 183 Upton Rd. Charlottetown C1A 7N8
Telephone: (902) 368 4700
Facsimile: (902) 368 471",Kate E MacQuarrie,,,6/7/13,6/7/13
Risk Management and Insurance Section,,pe/risk-management-and-insurance-section,,"Finance, Energy  and Municipal Affairs",pe/finance-energy-and-municipal-affairs,,http://www.gov.pe.ca/finance/ootc-info/dg.inc.php3,Saskatchewan,SK,"Index of Departments, Disivions and Sections",http://www.gov.pe.ca,"Second Floor, Shaw Building 95 Rochford Street P.O. Box 2000 Charlottetown, PEI C1A 7N8","Doug Clow, CA",,,6/7/13,6/7/13
Rural Development,,pe/rural-development,,"Fisheries, Aquaculture and Rural Development",pe/fisheries-aquaculture-and-rural-development,,http://www.gov.pe.ca/fa/rd-info/dg.inc.php3,Saskatchewan,SK,"Index of Departments, Disivions and Sections",http://www.gov.pe.ca,"PO Box 1180 548 Main St Montague, PE C0A 1R0",Brian Schmeisser,,,6/7/13,6/7/13
Rural Food and Manufacturing,,pe/rural-food-and-manufacturing,,Innovation and Advanced Learning,pe/innovation-and-advanced-learning,,http://www.gov.pe.ca/ial/ip-info/dg.inc.php3,Saskatchewan,SK,"Index of Departments, Disivions and Sections",http://www.gov.pe.ca,"94 Euston Street PO Box 910 Charlottetown, PE C1A 7L9","Cheryl L. Paynter, CA",,,6/7/13,6/7/13
Safety Standards,,pe/safety-standards,,"Environment, Labour and Justice",pe/environment-labour-and-justice,,http://www.gov.pe.ca/jps/env-info/dg.inc.php3,Saskatchewan,SK,"Index of Departments, Disivions and Sections",http://www.gov.pe.ca,"Jones Building, 4th Floor 11 Kent Street PO Box 2000, Charlottetown, PE C1A 7N8","Jim Young, P.Eng.",,,6/7/13,6/7/13
Securities,,pe/securities,,"Environment, Labour and Justice",pe/environment-labour-and-justice,,http://www.gov.pe.ca/jps/clafs-info/dg.inc.php3,Saskatchewan,SK,"Index of Departments, Disivions and Sections",http://www.gov.pe.ca,"Fourth Floor, Shaw Building 95 Rochford Street PO Box 2000 Charlottetown, PE C1A 7N8",Katharine Tummon,,,6/7/13,6/7/13
Self Employment,,pe/self-employment,,Innovation and Advanced Learning,pe/innovation-and-advanced-learning,,http://www.gov.pe.ca/ial/ip-info/dg.inc.php3,Saskatchewan,SK,"Index of Departments, Disivions and Sections",http://www.gov.pe.ca,"94 Euston Street PO Box 910 Charlottetown, PE C1A 7L9","Cheryl L. Paynter, CA",,,6/7/13,6/7/13
Senior's Secretariat / Office of Seniors,,pe/senior-s-secretariat-office-of-seniors,,Community Services and  Seniors,pe/community-services-and-seniors,,http://www.gov.pe.ca/sss/hsacs-info/dg.inc.php3,Saskatchewan,SK,"Index of Departments, Disivions and Sections",http://www.gov.pe.ca,"Second Floor, Jones Building 11 Kent Street PO Box 2000, Charlottetown, PE C1A 7N8",W. Lorne Clow,,,6/7/13,6/7/13
"Settlement, Recruitment and Retention",,pe/settlement-recruitment-and-retention,,Innovation and Advanced Learning,pe/innovation-and-advanced-learning,,http://www.gov.pe.ca/ial/iidi-info/dg.inc.php3,Saskatchewan,SK,"Index of Departments, Disivions and Sections",http://www.gov.pe.ca,"94 Euston Street, 2nd Floor PO Box 1176 Charlottetown, Prince Edward Island C1A 7M8","Jamie Aiken, CA",,,6/7/13,6/7/13
Sheriff Services - (Charlottetown Office),,pe/sheriff-services-charlottetown-office,,"Environment, Labour and Justice",pe/environment-labour-and-justice,,http://www.gov.pe.ca/jps/lacs-info/dg.inc.php3,Saskatchewan,SK,"Index of Departments, Disivions and Sections",http://www.gov.pe.ca,"Fourth Floor,Shaw Building 95 Rochford Street PO Box 2000 Charlottetown, PEI C1A 7N8","Barrie L. Grandy, QC",,,6/7/13,6/7/13
SkillsPEI,,pe/skillspei,,Innovation and Advanced Learning,pe/innovation-and-advanced-learning,,http://www.gov.pe.ca/ial/ski-info/dg.inc.php3,Saskatchewan,SK,"Index of Departments, Disivions and Sections",http://www.gov.pe.ca,"Atlantic Technology Centre 90 University Avenue, Suite 212 Charlottetown, PE C1A 4K9",Birt MacKinnon,,,6/7/13,6/7/13
Small Business and Tourism,,pe/small-business-and-tourism,,Innovation and Advanced Learning,pe/innovation-and-advanced-learning,,http://www.gov.pe.ca/ial/fp-info/dg.inc.php3,Saskatchewan,SK,"Index of Departments, Disivions and Sections",http://www.gov.pe.ca,"Commercial and Resource Lending 98 Fitzroy Street, 2nd Floor PO Box 1176 Charlottetown, Prince Edward Island C1A 1R7 Canada Developmental Lending 94 Euston Street, 2nd Floor PO Box 1176 Charlottetown, Prince Edward Island C1A 7M8","Jamie Aiken, CA",,,6/7/13,6/7/13
Social Assistance/Disability Support Programs,,pe/social-assistance-disability-support-programs,,Community Services and  Seniors,pe/community-services-and-seniors,,http://www.gov.pe.ca/sss/sp-info/dg.inc.php3,Saskatchewan,SK,"Index of Departments, Disivions and Sections",http://www.gov.pe.ca,,Bob D. Creed,,,6/7/13,6/7/13
Social Programs,,pe/social-programs,,Community Services and  Seniors,pe/community-services-and-seniors,,http://www.gov.pe.ca/sss/sp-info/dg.inc.php3,Saskatchewan,SK,"Index of Departments, Disivions and Sections",http://www.gov.pe.ca,,Bob D. Creed,,,6/7/13,6/7/13
"Soil, Feed  and Water Chemistry Testing Laboratory",,pe/soil-feed-and-water-chemistry-testing-laboratory,,Agriculture and Forestry,pe/agriculture-and-forestry,,http://www.gov.pe.ca/af/pal-info/dg.inc.php3,Saskatchewan,SK,"Index of Departments, Disivions and Sections",http://www.gov.pe.ca,"23 Innovation Way Charlottetown, PE C1E OB7",Tracy Wood,,,6/7/13,6/7/13
Souris Location,,pe/souris-location,,"Environment, Labour and Justice",pe/environment-labour-and-justice,,http://www.gov.pe.ca/jps/cacs-info/dg.inc.php3,Saskatchewan,SK,"Index of Departments, Disivions and Sections",http://www.gov.pe.ca,"109 Water Street Summerside, PE C1N 1A8",John R Picketts,,,6/7/13,6/7/13
Souris Location,,pe/souris-location,,"Environment, Labour and Justice",pe/environment-labour-and-justice,,http://www.gov.pe.ca/jps/cacs-info/dg.inc.php3,Saskatchewan,SK,"Index of Departments, Disivions and Sections",http://www.gov.pe.ca,"109 Water Street Summerside, PE C1N 1A8",John R Picketts,,,6/7/13,6/7/13
Special Education,,pe/special-education,,Education and Early Childhood Development,pe/education-and-early-childhood-development,,http://www.gov.pe.ca/education/laecd-info/dg.inc.php3,Saskatchewan,SK,"Index of Departments, Disivions and Sections",http://www.gov.pe.ca,,Imelda Arsenault,,,6/7/13,6/7/13
"Sport, Recreation and Healthy Living",,pe/sport-recreation-and-healthy-living,,Health and Wellness,pe/health-and-wellness,,http://www.gov.pe.ca/health/srahl-info/dg.inc.php3,Saskatchewan,SK,"Index of Departments, Disivions and Sections",http://www.gov.pe.ca,"PO Box 2000 16 Fitzroy Street 3rd Floor, Sullivan Bldg. Charlottetown, PE, C1A 7N8",John Morrison,,,6/7/13,6/7/13
Staffing and Recruitment,,pe/staffing-and-recruitment,,"Finance, Energy  and Municipal Affairs",pe/finance-energy-and-municipal-affairs,,http://www.gov.pe.ca/finance/psc-info/dg.inc.php3,Saskatchewan,SK,"Index of Departments, Disivions and Sections",http://www.gov.pe.ca,"First Floor Shaw Building North 105 Rochford Street P.O Box 2000 Charlottetown, PEI C1A 7N8",Andrew M Thompson,,,6/7/13,6/7/13
"Staffing, Classification and Organizational Development",,pe/staffing-classification-and-organizational-development,,"Finance, Energy  and Municipal Affairs",pe/finance-energy-and-municipal-affairs,,http://www.gov.pe.ca/finance/psc-info/dg.inc.php3,Saskatchewan,SK,"Index of Departments, Disivions and Sections",http://www.gov.pe.ca,"First Floor Shaw Building North 105 Rochford Street P.O Box 2000 Charlottetown, PEI C1A 7N8",Andrew M Thompson,,,6/7/13,6/7/13
Strategic Initiatives and Properties,,pe/strategic-initiatives-and-properties,,Innovation and Advanced Learning,pe/innovation-and-advanced-learning,,http://www.gov.pe.ca/ial/fp-info/dg.inc.php3,Saskatchewan,SK,"Index of Departments, Disivions and Sections",http://www.gov.pe.ca,"Commercial and Resource Lending 98 Fitzroy Street, 2nd Floor PO Box 1176 Charlottetown, Prince Edward Island C1A 1R7 Canada Developmental Lending 94 Euston Street, 2nd Floor PO Box 1176 Charlottetown, Prince Edward Island C1A 7M8","Jamie Aiken, CA",,,6/7/13,6/7/13
Strategy and Performance,,pe/strategy-and-performance,,Health PEI,pe/health-pei,,http://www.healthpei.ca/cdai-info/dg.inc.php3,Saskatchewan,SK,"Index of Departments, Disivions and Sections",http://www.gov.pe.ca,,Pamela Trainor,,,6/7/13,6/7/13
"Strategy, Evaluation & Industry Investment",,pe/strategy-evaluation-industry-investment,,Tourism and Culture,pe/tourism-and-culture,,http://www.gov.pe.ca/tourism/se&ii-info/dg.inc.php3,Saskatchewan,SK,"Index of Departments, Disivions and Sections",http://www.gov.pe.ca,,Chris K. Jones,,,6/7/13,6/7/13
Student Financial Services,,pe/student-financial-services,,Innovation and Advanced Learning,pe/innovation-and-advanced-learning,,http://www.gov.pe.ca/ial/psace-info/dg.inc.php3,Saskatchewan,SK,"Index of Departments, Disivions and Sections",http://www.gov.pe.ca,"Atlantic Technology Centre 90 University Avenue, Suite 212 Charlottetown, PE C1A 4K9",Susan A MacKenzie,,,6/7/13,6/7/13
Student Services,,pe/student-services,,Education and Early Childhood Development,pe/education-and-early-childhood-development,,http://www.gov.pe.ca/education/laecd-info/dg.inc.php3,Saskatchewan,SK,"Index of Departments, Disivions and Sections",http://www.gov.pe.ca,,Imelda Arsenault,,,6/7/13,6/7/13
Subdivision Planning,,pe/subdivision-planning,,"Environment, Labour and Justice",pe/environment-labour-and-justice,,http://www.gov.pe.ca/jps/env-info/dg.inc.php3,Saskatchewan,SK,"Index of Departments, Disivions and Sections",http://www.gov.pe.ca,"Jones Building, 4th Floor 11 Kent Street PO Box 2000, Charlottetown, PE C1A 7N8","Jim Young, P.Eng.",,,6/7/13,6/7/13
Summerside Location,,pe/summerside-location,,"Environment, Labour and Justice",pe/environment-labour-and-justice,,http://www.gov.pe.ca/jps/cacs-info/dg.inc.php3,Saskatchewan,SK,"Index of Departments, Disivions and Sections",http://www.gov.pe.ca,"109 Water Street Summerside, PE C1N 1A8",John R Picketts,,,6/7/13,6/7/13
Summerside Location,,pe/summerside-location,,"Environment, Labour and Justice",pe/environment-labour-and-justice,,http://www.gov.pe.ca/jps/cacs-info/dg.inc.php3,Saskatchewan,SK,"Index of Departments, Disivions and Sections",http://www.gov.pe.ca,"109 Water Street Summerside, PE C1N 1A8",John R Picketts,,,6/7/13,6/7/13
Summerside Location,,pe/summerside-location,,"Environment, Labour and Justice",pe/environment-labour-and-justice,,http://www.gov.pe.ca/jps/cacs-info/dg.inc.php3,Saskatchewan,SK,"Index of Departments, Disivions and Sections",http://www.gov.pe.ca,"109 Water Street Summerside, PE C1N 1A8",John R Picketts,,,6/7/13,6/7/13
Summerside Location,,pe/summerside-location,,"Environment, Labour and Justice",pe/environment-labour-and-justice,,http://www.gov.pe.ca/jps/cao-info/dg.inc.php3,Saskatchewan,SK,"Index of Departments, Disivions and Sections",http://www.gov.pe.ca,"197 Richmond Street Charlottetown, PEI C1A 1J3",Cyndria L Wedge,,,6/7/13,6/7/13
Summerside Location,,pe/summerside-location,,"Environment, Labour and Justice",pe/environment-labour-and-justice,,http://www.gov.pe.ca/jps/la-info/dg.inc.php3,Saskatchewan,SK,"Index of Departments, Disivions and Sections",http://www.gov.pe.ca,"40 Great George Street P.O. Box 2000 Charlottetown, P.E.I C1A 7N8","W. Kent Brown, Q.C.",,,6/7/13,6/7/13
Summerside,,pe/summerside,,"Finance, Energy  and Municipal Affairs",pe/finance-energy-and-municipal-affairs,,http://www.gov.pe.ca/finance/tapr-info/dg.inc.php3,Saskatchewan,SK,"Index of Departments, Disivions and Sections",http://www.gov.pe.ca,"Shaw Building, 1st Floor 95 Rochford Street PO Box 2000 Charlottetown, PE C1A 7N8",Elizabeth (Beth) Gaudet,,,6/7/13,6/7/13
Summerside,,pe/summerside,,"Finance, Energy  and Municipal Affairs",pe/finance-energy-and-municipal-affairs,,http://www.gov.pe.ca/finance/tapr-info/dg.inc.php3,Saskatchewan,SK,"Index of Departments, Disivions and Sections",http://www.gov.pe.ca,"Shaw Building, 1st Floor 95 Rochford Street PO Box 2000 Charlottetown, PE C1A 7N8",Elizabeth (Beth) Gaudet,,,6/7/13,6/7/13
Summerside,,pe/summerside,,Innovation and Advanced Learning,pe/innovation-and-advanced-learning,,http://www.gov.pe.ca/ial/ski-info/dg.inc.php3,Saskatchewan,SK,"Index of Departments, Disivions and Sections",http://www.gov.pe.ca,"Atlantic Technology Centre 90 University Avenue, Suite 212 Charlottetown, PE C1A 4K9",Birt MacKinnon,,,6/7/13,6/7/13
Summerside,,pe/summerside,,"Environment, Labour and Justice",pe/environment-labour-and-justice,,http://www.gov.pe.ca/jps/lacs-info/dg.inc.php3,Saskatchewan,SK,"Index of Departments, Disivions and Sections",http://www.gov.pe.ca,"Fourth Floor,Shaw Building 95 Rochford Street PO Box 2000 Charlottetown, PEI C1A 7N8","Barrie L. Grandy, QC",,,6/7/13,6/7/13
Support Services,,pe/support-services,,Health PEI,pe/health-pei,,http://www.healthpei.ca/pch-info/dg.inc.php3,Saskatchewan,SK,"Index of Departments, Disivions and Sections",http://www.gov.pe.ca,,Arlene Gallant-Bernard,,,6/7/13,6/7/13
Support Services,,pe/support-services,,Health PEI,pe/health-pei,,http://www.healthpei.ca/qeh-info/dg.inc.php3,Saskatchewan,SK,"Index of Departments, Disivions and Sections",http://www.gov.pe.ca,,Rick Adams,,,6/7/13,6/7/13
Supreme Court of PEI,,pe/supreme-court-of-pei,,"Environment, Labour and Justice",pe/environment-labour-and-justice,,http://www.gov.pe.ca/jps/lacs-info/dg.inc.php3,Saskatchewan,SK,"Index of Departments, Disivions and Sections",http://www.gov.pe.ca,"Fourth Floor,Shaw Building 95 Rochford Street PO Box 2000 Charlottetown, PEI C1A 7N8","Barrie L. Grandy, QC",,,6/7/13,6/7/13
Surveys,,pe/surveys,,Transportation and Infrastructure,pe/transportation-and-infrastructure,,http://www.gov.pe.ca/tir/lae-info/dg.inc.php3,Saskatchewan,SK,"Index of Departments, Disivions and Sections",http://www.gov.pe.ca,"Third Floor, Jones Building 11 Kent Street PO Box 2000 Charlottetown, PE C1A 7N8","Brian F. Thompson, P. Eng",,,6/7/13,6/7/13
Sustainable Agriculture Resources,,pe/sustainable-agriculture-resources,,Agriculture and Forestry,pe/agriculture-and-forestry,,http://www.gov.pe.ca/af/ard-info/dg.inc.php3,Saskatchewan,SK,"Index of Departments, Disivions and Sections",http://www.gov.pe.ca,"Fifth Floor, Jones Building 11 Kent Street, P.O. Box 2000, Charlottetown, PEI C1A 7N8",Tracy Wood,,,6/7/13,6/7/13
System Support Services,,pe/system-support-services,,"Finance, Energy  and Municipal Affairs",pe/finance-energy-and-municipal-affairs,,http://www.gov.pe.ca/finance/itss-info/dg.inc.php3,Saskatchewan,SK,"Index of Departments, Disivions and Sections",http://www.gov.pe.ca,"Sullivan Building, 5th floor PO Box 2000 Charlottetown PE C1A 7N8","Norman MacDonald, COO",,,6/7/13,6/7/13
Taxation and Property Records,,pe/taxation-and-property-records,,"Finance, Energy  and Municipal Affairs",pe/finance-energy-and-municipal-affairs,,http://www.gov.pe.ca/finance/tapr-info/dg.inc.php3,Saskatchewan,SK,"Index of Departments, Disivions and Sections",http://www.gov.pe.ca,"Shaw Building, 1st Floor 95 Rochford Street PO Box 2000 Charlottetown, PE C1A 7N8",Elizabeth (Beth) Gaudet,,,6/7/13,6/7/13
Tax Compliance Services,,pe/tax-compliance-services,,"Finance, Energy  and Municipal Affairs",pe/finance-energy-and-municipal-affairs,,http://www.gov.pe.ca/finance/tapr-info/dg.inc.php3,Saskatchewan,SK,"Index of Departments, Disivions and Sections",http://www.gov.pe.ca,"Shaw Building, 1st Floor 95 Rochford Street PO Box 2000 Charlottetown, PE C1A 7N8",Elizabeth (Beth) Gaudet,,,6/7/13,6/7/13
Technical Services,,pe/technical-services,,Innovation and Advanced Learning,pe/innovation-and-advanced-learning,,http://www.gov.pe.ca/ial/bio-info/dg.inc.php3,Saskatchewan,SK,"Index of Departments, Disivions and Sections",http://www.gov.pe.ca,"101 Belvedere Avenue PO Box 2000 Charlottetown, PE C1A 7N8","Jim Smith, PhD, FIFST, MBA",,,6/7/13,6/7/13
Technology in Education,,pe/technology-in-education,,Education and Early Childhood Development,pe/education-and-early-childhood-development,,http://www.gov.pe.ca/education/aacs-info/dg.inc.php3,Saskatchewan,SK,"Index of Departments, Disivions and Sections",http://www.gov.pe.ca,"250 Water Street, Suite 101 Summerside, PE C1N 1B6",Terry Keefe,,,6/7/13,6/7/13
Trade and Sales,,pe/trade-and-sales,,Tourism and Culture,pe/tourism-and-culture,,http://www.gov.pe.ca/tourism/mcsac-info/dg.inc.php3,Saskatchewan,SK,"Index of Departments, Disivions and Sections",http://www.gov.pe.ca,,Brenda Gallant,,,6/7/13,6/7/13
Trade Initatives,,pe/trade-initatives,,Innovation and Advanced Learning,pe/innovation-and-advanced-learning,,http://www.gov.pe.ca/ial/ip-info/dg.inc.php3,Saskatchewan,SK,"Index of Departments, Disivions and Sections",http://www.gov.pe.ca,"94 Euston Street PO Box 910 Charlottetown, PE C1A 7L9","Cheryl L. Paynter, CA",,,6/7/13,6/7/13
Traffic Operations,,pe/traffic-operations,,Transportation and Infrastructure,pe/transportation-and-infrastructure,,http://www.gov.pe.ca/tir/cp-info/dg.inc.php3,Saskatchewan,SK,"Index of Departments, Disivions and Sections",http://www.gov.pe.ca,"3rd Floor, Jones Building 11 Kent Street Charlottetown, PE C1A 7N8","Stephen J Yeo, P. Eng",,,6/7/13,6/7/13
Victim Services,,pe/victim-services,,"Environment, Labour and Justice",pe/environment-labour-and-justice,,http://www.gov.pe.ca/jps/cacs-info/dg.inc.php3,Saskatchewan,SK,"Index of Departments, Disivions and Sections",http://www.gov.pe.ca,"109 Water Street Summerside, PE C1N 1A8",John R Picketts,,,6/7/13,6/7/13
Visitor Services,,pe/visitor-services,,Tourism and Culture,pe/tourism-and-culture,,http://www.gov.pe.ca/tourism/mcsac-info/dg.inc.php3,Saskatchewan,SK,"Index of Departments, Disivions and Sections",http://www.gov.pe.ca,,Brenda Gallant,,,6/7/13,6/7/13
Vital Statistics,,pe/vital-statistics,,Health and Wellness,pe/health-and-wellness,,http://www.gov.pe.ca/health/cpho-info/dg.inc.php3,Saskatchewan,SK,"Index of Departments, Disivions and Sections",http://www.gov.pe.ca,,Dr. Heather G. Morrison,,,6/7/13,6/7/13
Water Microbiology Laboratory,,pe/water-microbiology-laboratory,,Agriculture and Forestry,pe/agriculture-and-forestry,,http://www.gov.pe.ca/af/pal-info/dg.inc.php3,Saskatchewan,SK,"Index of Departments, Disivions and Sections",http://www.gov.pe.ca,"23 Innovation Way Charlottetown, PE C1E OB7",Tracy Wood,,,6/7/13,6/7/13
Watershed and Subdivision Planning,,pe/watershed-and-subdivision-planning,,"Environment, Labour and Justice",pe/environment-labour-and-justice,,http://www.gov.pe.ca/jps/env-info/dg.inc.php3,Saskatchewan,SK,"Index of Departments, Disivions and Sections",http://www.gov.pe.ca,"Jones Building, 4th Floor 11 Kent Street PO Box 2000, Charlottetown, PE C1A 7N8","Jim Young, P.Eng.",,,6/7/13,6/7/13
Watershed Planning,,pe/watershed-planning,,"Environment, Labour and Justice",pe/environment-labour-and-justice,,http://www.gov.pe.ca/jps/env-info/dg.inc.php3,Saskatchewan,SK,"Index of Departments, Disivions and Sections",http://www.gov.pe.ca,"Jones Building, 4th Floor 11 Kent Street PO Box 2000, Charlottetown, PE C1A 7N8","Jim Young, P.Eng.",,,6/7/13,6/7/13
Western Forest District Office,,pe/western-forest-district-office,,Agriculture and Forestry,pe/agriculture-and-forestry,,http://www.gov.pe.ca/af/ffaw-info/dg.inc.php3,Saskatchewan,SK,"Index of Departments, Disivions and Sections",http://www.gov.pe.ca,"J. Frank Gaudet Tree Nursery Box 2000 183 Upton Rd. Charlottetown C1A 7N8
Telephone: (902) 368 4700
Facsimile: (902) 368 471",Kate E MacQuarrie,,,6/7/13,6/7/13
Western Forest District Office,,pe/western-forest-district-office,,Agriculture and Forestry,pe/agriculture-and-forestry,,http://www.gov.pe.ca/af/ffaw-info/dg.inc.php3,Saskatchewan,SK,"Index of Departments, Disivions and Sections",http://www.gov.pe.ca,"J. Frank Gaudet Tree Nursery Box 2000 183 Upton Rd. Charlottetown C1A 7N8
Telephone: (902) 368 4700
Facsimile: (902) 368 471",Kate E MacQuarrie,,,6/7/13,6/7/13
Western Region,,pe/western-region,,Transportation and Infrastructure,pe/transportation-and-infrastructure,,http://www.gov.pe.ca/tir/cp-info/dg.inc.php3,Saskatchewan,SK,"Index of Departments, Disivions and Sections",http://www.gov.pe.ca,"3rd Floor, Jones Building 11 Kent Street Charlottetown, PE C1A 7N8","Stephen J Yeo, P. Eng",,,6/7/13,6/7/13
Western Region,,pe/western-region,,Transportation and Infrastructure,pe/transportation-and-infrastructure,,http://www.gov.pe.ca/tir/hm-info/dg.inc.php3,Saskatchewan,SK,"Index of Departments, Disivions and Sections",http://www.gov.pe.ca,"Provincial Headquarters Park Street & Riverside Drive PO Box 2000 Charlottetown, PE C1A 7N8","Darren Chaisson, P. Eng",,,6/7/13,6/7/13
Western Region,,pe/western-region,,Transportation and Infrastructure,pe/transportation-and-infrastructure,,http://www.gov.pe.ca/tir/hm-info/dg.inc.php3,Saskatchewan,SK,"Index of Departments, Disivions and Sections",http://www.gov.pe.ca,"Provincial Headquarters Park Street & Riverside Drive PO Box 2000 Charlottetown, PE C1A 7N8","Darren Chaisson, P. Eng",,,6/7/13,6/7/13
Wildlife Habitat and Population Assessment,,pe/wildlife-habitat-and-population-assessment,,Agriculture and Forestry,pe/agriculture-and-forestry,,http://www.gov.pe.ca/af/ffaw-info/dg.inc.php3,Saskatchewan,SK,"Index of Departments, Disivions and Sections",http://www.gov.pe.ca,"J. Frank Gaudet Tree Nursery Box 2000 183 Upton Rd. Charlottetown C1A 7N8
Telephone: (902) 368 4700
Facsimile: (902) 368 471",Kate E MacQuarrie,,,6/7/13,6/7/13
Women's Institute,,pe/women-s-institute,,Agriculture and Forestry,pe/agriculture-and-forestry,,http://www.gov.pe.ca/af/ap&rd-info/dg.inc.php3,Saskatchewan,SK,"Index of Departments, Disivions and Sections",http://www.gov.pe.ca,"5th Floor, Jones Building 11 Kent Street Charlottetown, P.E.I. C1A 7N8",Shane Murphy,,,6/7/13,6/7/13
Worker Advisor Program,,pe/worker-advisor-program,,"Environment, Labour and Justice",pe/environment-labour-and-justice,,http://www.gov.pe.ca/jps/clafs-info/dg.inc.php3,Saskatchewan,SK,"Index of Departments, Disivions and Sections",http://www.gov.pe.ca,"Fourth Floor, Shaw Building 95 Rochford Street PO Box 2000 Charlottetown, PE C1A 7N8",Katharine Tummon,,,6/7/13,6/7/13
Youth Custody Facility,,pe/youth-custody-facility,,"Environment, Labour and Justice",pe/environment-labour-and-justice,,http://www.gov.pe.ca/jps/cacs-info/dg.inc.php3,Saskatchewan,SK,"Index of Departments, Disivions and Sections",http://www.gov.pe.ca,"109 Water Street Summerside, PE C1N 1A8",John R Picketts,,,6/7/13,6/7/13
Youth Justice Services,,pe/youth-justice-services,,"Environment, Labour and Justice",pe/environment-labour-and-justice,,http://www.gov.pe.ca/jps/cacs-info/dg.inc.php3,Saskatchewan,SK,"Index of Departments, Disivions and Sections",http://www.gov.pe.ca,"109 Water Street Summerside, PE C1N 1A8",John R Picketts,,,6/7/13,6/7/13
